{"type": "FeatureCollection", "site_id": "balaghat", "site_name": "Balaghat", "provenance": {"status": "PLACEHOLDER_SCORES", "warning": "Geometry, grid, kriging, classification and export are real. Model scores and factor values are PLACEHOLDERS \u2014 Part 1 (GEE features) and Part 4 (training) are blocked pending Earth Engine credentials and real deposit ground truth. NOT a prospectivity result.", "interpolation_method": ["ordinary_kriging_spherical"], "generated_utc": "2026-09-04T04:38:15.625754+00:00"}, "features": [{"type": "Feature", "geometry": {"type": "MultiPolygon", "coordinates": [[[[80.09938713822521, 21.73079874308521], [80.09937025474078, 21.733508864939225], [80.09935336861975, 21.736218985894393], [80.09933647986192, 21.738929105950636], [80.09931958846705, 21.741639225107857], [80.09930269443494, 21.74434934336597], [80.09928579776533, 21.747059460724884], [80.09926889845806, 21.749769577184505], [80.09925199651283, 21.752479692744746], [80.09923509192949, 21.755189807405525], [80.09921818470777, 21.75789992116674], [80.09920127484746, 21.760610034028296], [80.09918436234834, 21.76332014599012], [80.09916744721018, 21.76603025705211], [80.09915052943276, 21.768740367214182], [80.09913360901587, 21.771450476476236], [80.09911668595926, 21.77416058483819], [80.09909976026273, 21.776870692299962], [80.09908283192605, 21.779580798861446], [80.09906590094899, 21.782290904522554], [80.09904896733134, 21.785001009283206], [80.09903203107287, 21.787711113143306], [80.10072470488103, 21.787720326049634], [80.09951565271906, 21.787713748943307], [80.09949872290902, 21.790423852263352], [80.09948179045912, 21.79313395468268], [80.09946485536913, 21.795844056201204], [80.09944791763887, 21.798554156818813], [80.09943097726807, 21.801264256535447], [80.09941403425654, 21.80397435535099], [80.09939708860404, 21.806684453265376], [80.09938014031034, 21.809394550278498], [80.09936318937523, 21.81210464639027], [80.09934623579848, 21.8148147416006], [80.09932927957986, 21.817524835909406], [80.09931232071916, 21.820234929316587], [80.09929535921616, 21.82294502182206], [80.09927839507061, 21.82565511342574], [80.10218089077742, 21.825670928754693], [80.10219780027542, 21.822960834990507], [80.10219780031079, 21.8229608293198], [80.10413276244546, 21.82297134875624], [80.1041496328833, 21.82026125265393], [80.1070520236885, 21.820276978633682], [80.10706883686733, 21.81756687948106], [80.10997117566102, 21.817582552301833], [80.10998793159789, 21.81487245010612], [80.11000468492408, 21.812162347009167], [80.11002143563982, 21.80945224301106], [80.11292361320149, 21.8094678584175], [80.11294030670973, 21.80675775138385], [80.11584243227558, 21.80677331367306], [80.11585906859335, 21.80406320361109], [80.11587570231835, 21.80135309264839], [80.11877772130725, 21.801368599713815], [80.1187942978675, 21.798658485730172], [80.121696264868, 21.798673939713073], [80.12171278428052, 21.795963822715702], [80.1246146992922, 21.7959792236299], [80.1275166168705, 21.795994573588484], [80.1275330245964, 21.793284451485338], [80.13043489017672, 21.793299748395828], [80.1304512407972, 21.790589623300423], [80.13335305437909, 21.79060486717665], [80.13336934791116, 21.787894739096195], [80.13338563890278, 21.78518461011601], [80.13048393439094, 21.78516937041002], [80.13050027736462, 21.782459242615204], [80.13051661778981, 21.779749113920765], [80.1305329556667, 21.777038984326794], [80.1305492909955, 21.774328853833374], [80.12764780706961, 21.774313571566708], [80.1276641943386, 21.77160344226561], [80.12768057905149, 21.768893312065174], [80.12769696120843, 21.766183180965488], [80.12771334080968, 21.763473048966635], [80.12481207734051, 21.763457724193998], [80.1248285088401, 21.76074759339441], [80.12484493777592, 21.758037461695775], [80.12486136414819, 21.755327329098165], [80.12487778795713, 21.752617195601676], [80.12777883366188, 21.752632511981446], [80.1277952004878, 21.74992237548815], [80.12781156475933, 21.747212238096235], [80.12782792647666, 21.744502099805786], [80.13072881150124, 21.74451735906825], [80.13074511626996, 21.741807217788534], [80.13076141849342, 21.73909707561054], [80.13077771817181, 21.736386932534366], [80.13079401530537, 21.733676788560096], [80.13081030989427, 21.730966643687825], [80.12790969675787, 21.730951394878776], [80.12792604315453, 21.728241251199048], [80.12502548692298, 21.728225953698782], [80.12504188511043, 21.7255158112185], [80.12505828073692, 21.72280566784032], [80.12507467380264, 21.720095523564357], [80.12509106430787, 21.717385378390695], [80.12510745225278, 21.71467523231941], [80.1222071702138, 21.714659894558398], [80.12222087013019, 21.712401440566655], [80.12222224004393, 21.712175575596362], [80.12222360989942, 21.711949749693506], [80.1222373076755, 21.70969129495384], [80.11933712774976, 21.709675910316214], [80.11643695040065, 21.709660474945046], [80.1135367756367, 21.70964498884051], [80.11063660346639, 21.709629452002794], [80.10773643389817, 21.70961386443208], [80.10483626694055, 21.709598226128566], [80.10217778278775, 21.709583844511165], [80.09951930099334, 21.709569424141723], [80.09950384354549, 21.712053684138123], [80.099488383776, 21.7145379930906], [80.0994715161064, 21.717248120335746], [80.09945464580156, 21.719958246682598], [80.09943777286125, 21.722668372131057], [80.09942089728521, 21.725378496681042], [80.09940401907328, 21.72808862033246], [80.09938713822521, 21.73079874308521]], [[80.10143324661988, 21.790434377094307], [80.10143324661988, 21.79043437709431], [80.09949872290902, 21.790423852263352], [80.10143324661988, 21.790434377094307]], [[80.10129800415376, 21.812115182740346], [80.10129800415376, 21.81211518274035], [80.09936318937523, 21.81210464639027], [80.10129800415376, 21.812115182740346]], [[80.1164231619568, 21.71191892615994], [80.11642316195679, 21.71191892615994], [80.11643695040065, 21.709660474945046], [80.1164231619568, 21.71191892615994]], [[80.11642040408854, 21.712370616328307], [80.11642040408856, 21.712370616328307], [80.11640661385006, 21.71462906679706], [80.11642040408854, 21.712370616328307]], [[80.10236675045637, 21.795859842105965], [80.10236675045637, 21.795859842105962], [80.10430134858503, 21.795870347172894], [80.10236675045637, 21.795859842105965]], [[80.10195064380125, 21.785016797163138], [80.10195064380125, 21.785016797163134], [80.10436870949694, 21.785029921313008], [80.10195064380125, 21.785016797163138]], [[80.10203501297126, 21.77146625355695], [80.10203501297126, 21.771466253556948], [80.10445285157071, 21.771479368729644], [80.10203501297126, 21.77146625355695]], [[80.10481950345496, 21.712308358971075], [80.10481950345498, 21.712308358971075], [80.104805532217, 21.71456680232236], [80.10481950345496, 21.712308358971075]], [[80.1106060678285, 21.714598036051218], [80.1106199485671, 21.712339589129595], [80.11061994856712, 21.712339589129595], [80.1106060678285, 21.714598036051218]]], [[[80.1966789963229, 21.88307266322084], [80.19666382021457, 21.885782803921252], [80.19376003830561, 21.885768613156323], [80.19374734387247, 21.888027061438667], [80.19084351878956, 21.888012817866713], [80.19082822863847, 21.890722953038694], [80.19373210874362, 21.890737198552902], [80.19663599121824, 21.890751392864274], [80.19953987605378, 21.890765535972665], [80.20244376324169, 21.890779627877887], [80.20534765277348, 21.890793668579764], [80.20825154464062, 21.890807658078145], [80.21115543883454, 21.890821596372838], [80.21405933534672, 21.890835483463686], [80.21696323416866, 21.890849319350522], [80.21986713529179, 21.890863104033173], [80.2227710387076, 21.890876837511478], [80.22567494440757, 21.89089051978526], [80.22857885238314, 21.890904150854364], [80.2314827626258, 21.89091773071862], [80.2314839728136, 21.890691881986772], [80.23414588840528, 21.890704287029113], [80.23415674215588, 21.88867166254476], [80.23439873109105, 21.888672789805163], [80.23438908649491, 21.89047956551358], [80.23729299210217, 21.89049304266152], [80.24019689995087, 21.890506468605277], [80.24020647140172, 21.888699690452498], [80.24020647165034, 21.88869969045365], [80.24020886431117, 21.888247987093152], [80.24021125712794, 21.887796301227755], [80.24021125687933, 21.887796301226608], [80.2402208273389, 21.885989522475867], [80.23731701091722, 21.8859760995817], [80.23733141921802, 21.88326593253328], [80.23734582527787, 21.880555764584564], [80.23444212077813, 21.880542294171086], [80.23445657942482, 21.877832127158673], [80.2344710358224, 21.875121959246094], [80.23156744321822, 21.8751084413411], [80.23158195217728, 21.872398274371783], [80.23159645887907, 21.869688106502394], [80.23161096332382, 21.86697793773303], [80.23162546551171, 21.864267768063776], [80.22872209435447, 21.864254206395383], [80.22873664906174, 21.861544037676396], [80.22875120150405, 21.858833868057626], [80.2258479421552, 21.858820258966997], [80.22294468507968, 21.858806598754253], [80.22004143028602, 21.858792887419547], [80.22002671354227, 21.86150305144648], [80.21712340627222, 21.861489287112093], [80.21710863246261, 21.864199448361084], [80.21420527271655, 21.86418563101315], [80.21130191527831, 21.864171762529807], [80.21128702960239, 21.86688191910167], [80.21127214160994, 21.869592074773163], [80.20836867691304, 21.869578151356595], [80.2083537318036, 21.87228830422853], [80.2054502146319, 21.87227432775686], [80.20543521238838, 21.874984477822046], [80.20253164274224, 21.87497044828142], [80.20251658334763, 21.877680595532635], [80.19961296122747, 21.87766651290921], [80.1995978446647, 21.880376657339255], [80.19958272575029, 21.883086800868202], [80.1966789963229, 21.88307266322084]]], [[[80.27577613139258, 21.745215518369232], [80.27771013386405, 21.745223963058233], [80.27771013383581, 21.74522396870715], [80.2781936340739, 21.7452260742287], [80.2786771354101, 21.745228185404088], [80.2786771354383, 21.745228179755156], [80.28061113926255, 21.74523660185386], [80.28062463336697, 21.742526362022502], [80.28063812536486, 21.739816121296442], [80.28065161525637, 21.737105879675784], [80.28066510304168, 21.734395637160613], [80.28067858872096, 21.73168539375101], [80.28069207229443, 21.728975149447077], [80.27827483902652, 21.72896463047625], [80.27585760825936, 21.72895408329429], [80.27295693266223, 21.728941375882158], [80.27294330412296, 21.731651615555407], [80.27292967345522, 21.73436185433415], [80.27291604065883, 21.737072092218295], [80.2729024057336, 21.739782329207763], [80.27288876867935, 21.742492565302456], [80.27578971617153, 21.74250528142678], [80.27577613139258, 21.745215518369232]]]]}, "properties": {"confidence_band": "Very Low", "site_id": "balaghat", "cell_count": 509}}, {"type": "Feature", "geometry": {"type": "Polygon", "coordinates": [[[80.1012133919508, 21.82566565697697], [80.09927839507061, 21.82565511342574], [80.09926142828232, 21.828365204127525], [80.09924445885105, 21.83107529392732], [80.09922748677656, 21.833785382825063], [80.09921051205865, 21.83649547082064], [80.09919353469708, 21.83920555791396], [80.09917655469162, 21.84191564410495], [80.09915957204207, 21.84462572939351], [80.0991425867482, 21.847335813779548], [80.09912559880978, 21.85004589726298], [80.09910860822659, 21.852755979843707], [80.09909161499837, 21.855466061521646], [80.09907461912496, 21.858176142296717], [80.09905762060609, 21.860886222168805], [80.09904061944155, 21.863596301137843], [80.09902361563111, 21.86630637920373], [80.09900660917455, 21.869016456366378], [80.09898960007165, 21.8717265326257], [80.09897258832217, 21.8744366079816], [80.0989555739259, 21.87714668243399], [80.09893855688262, 21.879856755982797], [80.09892153719208, 21.8825668286279], [80.09890451485408, 21.88527690036923], [80.0988889086628, 21.887761124708916], [80.0988733003576, 21.89024536288073], [80.10080916720642, 21.89025594077555], [80.10080916717075, 21.89025594646552], [80.10129313426567, 21.890258585251154], [80.1017771010179, 21.890261229725077], [80.10177710105354, 21.89026122403511], [80.10371296959173, 21.890271779178512], [80.1066167746466, 21.890287560694333], [80.10952058232682, 21.890303291012774], [80.11242439262386, 21.890318970133656], [80.11532820552922, 21.89033459805678], [80.11823202103436, 21.890350174781965], [80.12113583913073, 21.890365700309015], [80.12403965980981, 21.89038117463775], [80.12694348306307, 21.890396597767975], [80.129847308882, 21.890411969699503], [80.13275113725805, 21.890427290432154], [80.13565496818268, 21.890442559965734], [80.13855880164739, 21.890457778300068], [80.14146263764363, 21.890472945434965], [80.14436647616287, 21.89048806137023], [80.14727031719657, 21.89050312610571], [80.15017416073623, 21.8905181396412], [80.1530780067733, 21.890533101976512], [80.15598185529926, 21.89054801311148], [80.15888570630555, 21.890562873045923], [80.16178955978368, 21.890577681779646], [80.16469341572511, 21.890592439312485], [80.16759727412129, 21.890607145644253], [80.17050113496369, 21.890621800774785], [80.1734049982438, 21.890636404703883], [80.17630886395308, 21.890650957431383], [80.179212732083, 21.890665458957102], [80.18211660262503, 21.890679909280866], [80.18502047557064, 21.890694308402498], [80.18792435091129, 21.890708656321838], [80.19082822863847, 21.890722953038694], [80.1908409704307, 21.888464507123842], [80.19084097059617, 21.888464507124656], [80.19374480498627, 21.888478751020987], [80.19376003830561, 21.885768613156323], [80.19666382021457, 21.885782803921252], [80.1966789963229, 21.88307266322084], [80.19958272575029, 21.883086800868202], [80.1995978446647, 21.880376657339255], [80.19961296122747, 21.87766651290921], [80.20251658334763, 21.877680595532635], [80.20253164274224, 21.87497044828142], [80.20543521238838, 21.874984477822046], [80.2054502146319, 21.87227432775686], [80.2083537318036, 21.87228830422853], [80.20836867691304, 21.869578151356595], [80.21127214160994, 21.869592074773163], [80.21128702960239, 21.86688191910167], [80.21130191527831, 21.864171762529807], [80.21420527271655, 21.86418563101315], [80.21710863246261, 21.864199448361084], [80.21712340627222, 21.861489287112093], [80.22002671354227, 21.86150305144648], [80.22004143028602, 21.858792887419547], [80.22294468507968, 21.858806598754253], [80.2258479421552, 21.858820258966997], [80.22875120150405, 21.858833868057626], [80.22873664906174, 21.861544037676396], [80.22872209435447, 21.864254206395383], [80.23162546551171, 21.864267768063776], [80.23161096332382, 21.86697793773303], [80.23159645887907, 21.869688106502394], [80.23158195217728, 21.872398274371783], [80.23156744321822, 21.8751084413411], [80.2344710358224, 21.875121959246094], [80.23445657942482, 21.877832127158673], [80.23444212077813, 21.880542294171086], [80.23734582527787, 21.880555764584564], [80.23733141921802, 21.88326593253328], [80.23731701091722, 21.8859760995817], [80.2402208273389, 21.885989522475867], [80.24020886431117, 21.888247987093152], [80.24019689995087, 21.890506468605277], [80.2431008100325, 21.8905198433447], [80.24600472233853, 21.890533166879617], [80.2489086368604, 21.89054643920987], [80.25181255358963, 21.890559660335303], [80.25471647251764, 21.890572830255753], [80.25762039363593, 21.890585948971058], [80.26052431693596, 21.890599016481058], [80.26342824240918, 21.890612032785597], [80.26633217004708, 21.890624997884515], [80.26923609984112, 21.890637911777667], [80.27214003178277, 21.890650774464877], [80.2750439658635, 21.890663585945997], [80.27746391257655, 21.89067421950783], [80.27746391255863, 21.890674223064394], [80.27770590724376, 21.890675282863995], [80.27794790207477, 21.89067634622088], [80.27794790209268, 21.89067634266431], [80.28036785053885, 21.89068694066729], [80.28037691605448, 21.888880146117177], [80.28037691628995, 21.888880146118208], [80.28037918243427, 21.888428447304715], [80.28038144881305, 21.887976748693745], [80.28038144857757, 21.887976748692715], [80.28039051315432, 21.88616995354501], [80.28040410790408, 21.883459760072398], [80.2804177005394, 21.88074956570047], [80.28043129106048, 21.878039370429295], [80.2804448794675, 21.875329174258983], [80.28045846576062, 21.87261897718961], [80.28047204994004, 21.869908779221277], [80.28048563200593, 21.867198580354057], [80.28049921195849, 21.86448838058805], [80.28051278979785, 21.86177817992335], [80.28052636552424, 21.85906797836003], [80.28053993913781, 21.856357775898196], [80.28055351063875, 21.853647572537927], [80.28056708002724, 21.85093736827931], [80.28058064730345, 21.848227163122445], [80.28059421246758, 21.845516957067407], [80.28060777551978, 21.842806750114296], [80.28062133646026, 21.840096542263208], [80.28063489528918, 21.83738633351421], [80.28064845200672, 21.834676123867407], [80.28066200661306, 21.831965913322882], [80.28067555910837, 21.82925570188073], [80.28068910949285, 21.826545489541033], [80.28070265776667, 21.82383527630389], [80.28071620393, 21.821125062169386], [80.28072974798303, 21.818414847137596], [80.28074328992594, 21.815704631208632], [80.28075682975889, 21.812994414382572], [80.28077036748208, 21.810284196659502], [80.28078390309568, 21.80757397803952], [80.28079743659987, 21.804863758522707], [80.28081096799482, 21.802153538109156], [80.28082449728072, 21.799443316798957], [80.28083802445775, 21.7967330945922], [80.28085154952608, 21.79402287148897], [80.2808650724859, 21.79131264748936], [80.28087859333735, 21.788602422593467], [80.28089211208065, 21.78589219680136], [80.28090562871598, 21.783181970113137], [80.28091914324351, 21.780471742528903], [80.28093265566339, 21.77776151404873], [80.28094616597583, 21.775051284672703], [80.280959674181, 21.772341054400933], [80.28086295574228, 21.772340633001292], [80.28087556325625, 21.769811084813774], [80.27855436354889, 21.76980097116636], [80.27855526696241, 21.76962029322935], [80.2785552669907, 21.769620287573453], [80.28048959749854, 21.76962872006016], [80.28050311056995, 21.766918488285068], [80.28051662153318, 21.764208255614466], [80.28053013038846, 21.761498022048464], [80.28054363713592, 21.758787787587146], [80.28055714177576, 21.75607755223059], [80.28057064430817, 21.753367315978892], [80.28058414473333, 21.750657078832152], [80.2805976430514, 21.74794684079044], [80.28061113926255, 21.74523660185386], [80.2781936340739, 21.7452260742287], [80.27577613139258, 21.745215518369232], [80.27578971617153, 21.74250528142678], [80.27288876867935, 21.742492565302456], [80.2729024057336, 21.739782329207763], [80.27291604065883, 21.737072092218295], [80.27292967345522, 21.73436185433415], [80.27294330412296, 21.731651615555407], [80.27295693266223, 21.728941375882158], [80.27585760825936, 21.72895408329429], [80.27779139319718, 21.72896252104127], [80.27779139316898, 21.728962526685546], [80.27827483902652, 21.72896463047625], [80.27875828597631, 21.728966739916114], [80.27875828600446, 21.728966734271825], [80.28069207229443, 21.728975149447077], [80.2807055537622, 21.7262649042489], [80.28071903312453, 21.72355465815656], [80.28073251038153, 21.72084441117016], [80.2807459855334, 21.71813416328978], [80.28075945858033, 21.715423914515508], [80.28077292952247, 21.712713664847442], [80.28078639836004, 21.710003414285662], [80.27836948195184, 21.70999290540891], [80.2759525681553, 21.709982368348584], [80.2730522728547, 21.70996967313086], [80.27015197968115, 21.70995692717172], [80.26725168864311, 21.70994413047132], [80.26435139974909, 21.709931283029814], [80.26145111300755, 21.70991838484735], [80.258550828427, 21.709905435924092], [80.2556505460159, 21.709892436260194], [80.25275026578277, 21.709879385855814], [80.24984998773604, 21.70986628471112], [80.24694971188424, 21.70985313282625], [80.24404943823582, 21.709839930201372], [80.24114916679927, 21.70982667683666], [80.2382488975831, 21.709813372732253], [80.23534863059578, 21.709800017888327], [80.23244836584577, 21.70978661230503], [80.22954810334159, 21.709773155982536], [80.22664784309167, 21.709759648921008], [80.22374758510456, 21.7097460911206], [80.2208473293887, 21.70973248258148], [80.21794707595258, 21.70971882330382], [80.2150468248047, 21.709705113287775], [80.21214657595351, 21.709691352533522], [80.20924632940753, 21.709677541041216], [80.20634608517521, 21.709663678811037], [80.20344584326506, 21.70964976584313], [80.20054560368555, 21.70963580213769], [80.19764536644517, 21.70962178769487], [80.1947451315524, 21.709607722514846], [80.19184489901572, 21.70959360659779], [80.1889446688436, 21.709579439943866], [80.18894322234127, 21.709837552392152], [80.1861810957454, 21.709824014144946], [80.18616730692857, 21.712276090103103], [80.18602919840761, 21.712275412992348], [80.18602919824188, 21.71227541299153], [80.18604190077045, 21.710016921021975], [80.18314166630405, 21.710002652568562], [80.18024143422772, 21.709988333377645], [80.17734120454993, 21.70997396344939], [80.17444097727915, 21.709959542783977], [80.17154075242388, 21.70994507138157], [80.16864052999259, 21.709930549242355], [80.16574030999377, 21.709915976366503], [80.1628400924359, 21.70990135275419], [80.15993987732746, 21.7098866784056], [80.15703966467693, 21.7098719533209], [80.1541394544928, 21.709857177500275], [80.15123924678355, 21.7098423509439], [80.14833904155768, 21.709827473651963], [80.14543883882364, 21.709812545624636], [80.14253863858991, 21.7097975668621], [80.139638440865, 21.709782537364536], [80.13673824565738, 21.709767457132127], [80.13383805297553, 21.709752326165056], [80.13093786282793, 21.709737144463514], [80.12803767522308, 21.709721912027668], [80.12513749016944, 21.709706628857713], [80.1222373076755, 21.70969129495384], [80.12222224004393, 21.712175575596362], [80.1222071702138, 21.714659894558398], [80.12510745225278, 21.71467523231941], [80.12509106430787, 21.717385378390695], [80.12507467380264, 21.720095523564357], [80.12505828073692, 21.72280566784032], [80.12504188511043, 21.7255158112185], [80.12502548692298, 21.728225953698782], [80.12792604315453, 21.728241251199048], [80.12790969675787, 21.730951394878776], [80.13081030989427, 21.730966643687825], [80.13079401530537, 21.733676788560096], [80.13077771817181, 21.736386932534366], [80.13076141849342, 21.73909707561054], [80.13074511626996, 21.741807217788534], [80.13072881150124, 21.74451735906825], [80.12782792647666, 21.744502099805786], [80.12781156475933, 21.747212238096235], [80.1277952004878, 21.74992237548815], [80.12777883366188, 21.752632511981446], [80.12487778795713, 21.752617195601676], [80.12486136414819, 21.755327329098165], [80.12484493777592, 21.758037461695775], [80.1248285088401, 21.76074759339441], [80.12481207734051, 21.763457724193998], [80.12771334080968, 21.763473048966635], [80.12769696120843, 21.766183180965488], [80.12768057905149, 21.768893312065174], [80.1276641943386, 21.77160344226561], [80.12764780706961, 21.774313571566708], [80.1305492909955, 21.774328853833374], [80.1305329556667, 21.777038984326794], [80.13051661778981, 21.779749113920765], [80.13050027736462, 21.782459242615204], [80.13048393439094, 21.78516937041002], [80.13338563890278, 21.78518461011601], [80.13336934791116, 21.787894739096195], [80.13335305437909, 21.79060486717665], [80.1304512407972, 21.790589623300423], [80.13043489017672, 21.793299748395828], [80.1275330245964, 21.793284451485338], [80.1275166168705, 21.795994573588484], [80.1246146992922, 21.7959792236299], [80.12171278428052, 21.795963822715702], [80.121696264868, 21.798673939713073], [80.1187942978675, 21.798658485730172], [80.11877772130725, 21.801368599713815], [80.11587570231835, 21.80135309264839], [80.11585906859335, 21.80406320361109], [80.11584243227558, 21.80677331367306], [80.11294030670973, 21.80675775138385], [80.11292361320149, 21.8094678584175], [80.11002143563982, 21.80945224301106], [80.11000468492408, 21.812162347009167], [80.10998793159789, 21.81487245010612], [80.10997117566102, 21.817582552301833], [80.10706883686733, 21.81756687948106], [80.1070520236885, 21.820276978633682], [80.1041496328833, 21.82026125265393], [80.10413276244546, 21.82297134875624], [80.10123031962924, 21.82295556960368], [80.1012133919508, 21.82566565697697]], [[80.14147615655541, 21.888214527913462], [80.14147615673099, 21.88821452791438], [80.14146263764363, 21.890472945434965], [80.14147615655541, 21.888214527913462]], [[80.16180275871115, 21.888319252363257], [80.16180275871116, 21.888319252363257], [80.16178955978368, 21.890577681779646], [80.16180275871115, 21.888319252363257]], [[80.18793713841781, 21.88845021203066], [80.18793713841782, 21.88845021203066], [80.18792435091129, 21.890708656321838], [80.18793713841781, 21.88845021203066]], [[80.26634141233792, 21.88881820896241], [80.26634141233794, 21.88881820896241], [80.26633217004708, 21.890624997884515], [80.26634141233792, 21.88881820896241]], [[80.27799791969124, 21.880738972993267], [80.27799791969124, 21.880738972993264], [80.2804177005394, 21.88074956570047], [80.27799791969124, 21.880738972993267]], [[80.27816141428993, 21.848216587741913], [80.27816141428993, 21.84821658774191], [80.28058064730345, 21.848227163122445], [80.27816141428993, 21.848216587741913]], [[80.27807168406198, 21.76961817945046], [80.27807168416263, 21.769618179450898], [80.27855526696241, 21.76962029322935], [80.27807168406198, 21.76961817945046]], [[80.27860945187741, 21.75877935971775], [80.27860945187741, 21.758779359717746], [80.28054363713592, 21.758787787587146], [80.27860945187741, 21.75877935971775]], [[80.2788123441531, 21.718125752729325], [80.2788123441531, 21.71812575272932], [80.2807459855334, 21.71813416328978], [80.2788123441531, 21.718125752729325]], [[80.15122600128478, 21.71210082295377], [80.15122600128477, 21.71210082295377], [80.15123924678355, 21.7098423509439], [80.15122600128478, 21.71210082295377]], [[80.19131379916871, 21.80444987471415], [80.19129858223991, 21.807160037643076], [80.18839639202153, 21.80714580096968], [80.1884116635448, 21.80443563998697], [80.188426932688, 21.801725478105396], [80.19132901372595, 21.801739710886416], [80.1913442259118, 21.79902954615997], [80.19424625474346, 21.799043726028206], [80.194261409989, 21.796333558464095], [80.19716338661397, 21.796347685433375], [80.19717848493619, 21.793637515038803], [80.20008040935407, 21.793651589122955], [80.20298233611722, 21.79366561225382], [80.2029973229804, 21.79095543711799], [80.20589919752736, 21.790969407384377], [80.20588426521712, 21.79367958443123], [80.20586933057865, 21.79638976058], [80.20296734691729, 21.79637578649149], [80.20295235538043, 21.79908595983091], [80.2000503194863, 21.799071932863843], [80.20003527103401, 21.801782103386717], [80.19713318290745, 21.801768023527256], [80.19423109713527, 21.801753892693757], [80.1942159371642, 21.804464058460677], [80.19131379916871, 21.80444987471415]], [[80.14744474112132, 21.86114360489913], [80.14454149388544, 21.861128562401362], [80.14452535075895, 21.86383867443432], [80.1445092051201, 21.866548785565346], [80.1416058508479, 21.866533687824635], [80.14158964790943, 21.869243795994162], [80.13868624137152, 21.869228645049013], [80.13866998111638, 21.87193875024983], [80.13865371833118, 21.87464885454828], [80.13575020472437, 21.87463364831128], [80.1357338845967, 21.87734374963364], [80.13283031871674, 21.877328490157463], [80.12992675538432, 21.877313179515937], [80.12994318513567, 21.874603082361805], [80.12995961233116, 21.871892984304978], [80.12705616116935, 21.871877626687365], [80.12707264060367, 21.869167529822374], [80.12708911747404, 21.866457432054816], [80.12418577845638, 21.86644202748889], [80.12420230754024, 21.863731930920082], [80.12421883405206, 21.8610218334488], [80.12423535799208, 21.85831173507514], [80.12425187936047, 21.855601635799182], [80.12426839815751, 21.852891535621026], [80.12428491438338, 21.85018143454075], [80.12718792486564, 21.85019682650038], [80.12720438379446, 21.847486722417308], [80.13010734211285, 21.847502061187907], [80.1301237437617, 21.844791954109237], [80.13014014285707, 21.842081846128888], [80.13015653939921, 21.83937173724693], [80.13305933614284, 21.839387018669044], [80.13307567543947, 21.836676906799052], [80.13597842003497, 21.8366921350739], [80.13888116716625, 21.83670731228783], [80.13889739455007, 21.833997195364496], [80.14180008952405, 21.83401231945179], [80.14470278701658, 21.834027392484767], [80.144718902521, 21.83131727053638], [80.14762154784708, 21.831332290463347], [80.15052419567446, 21.831347259342603], [80.15342684599463, 21.831362177173975], [80.15632949879908, 21.83137704395728], [80.15923215407929, 21.831391859692335], [80.16213481182675, 21.831406624378964], [80.16503747203294, 21.831421338016984], [80.16794013468933, 21.831436000606217], [80.1679244566027, 21.834146138771523], [80.17082717637896, 21.834160752307536], [80.17081155053711, 21.836870891568296], [80.17371432743366, 21.836885456037038], [80.17369875385359, 21.839595596386324], [80.17660158787082, 21.839610111773748], [80.17658606656958, 21.842320253204658], [80.17948895770793, 21.84233471949671], [80.17947348870256, 21.84504486200231], [80.1823764369624, 21.845059279184945], [80.18236102026994, 21.847769422758336], [80.18234560117713, 21.850479565431275], [80.17944254346563, 21.85046514431215], [80.17653948816319, 21.850450672094546], [80.17363643527835, 21.850436148778634], [80.17073338481963, 21.8504215743646], [80.16783033679552, 21.850406948852612], [80.16781464161117, 21.853117080713503], [80.16491154129264, 21.853102402100518], [80.162008443426, 21.853087672382962], [80.15910534801976, 21.85307289156102], [80.15620225508243, 21.85305805963487], [80.15329916462257, 21.85304317660468], [80.15328319326645, 21.85575329747835], [80.15038005054748, 21.85573836130614], [80.1503640219516, 21.858448479240124], [80.14746082697397, 21.858433489912052], [80.14744474112132, 21.86114360489913]], [[80.14147886016266, 21.88776284433411], [80.14149237732323, 21.885504426062095], [80.14147886033821, 21.887762844335025], [80.14147886016266, 21.88776284433411]], [[80.22042326226992, 21.78832830711795], [80.22332509611202, 21.78834196983272], [80.22622693223093, 21.788355581606805], [80.22912877061817, 21.788369142440036], [80.23203061126524, 21.788382652332242], [80.23201617219173, 21.791092847162115], [80.23491806963649, 21.79110630795441], [80.23490368286635, 21.793816503728248], [80.23780563710916, 21.79382991540659], [80.2377913026594, 21.796540112117455], [80.23777696597476, 21.799250307930876], [80.23487490259629, 21.799236892583597], [80.23197284146138, 21.799223426267087], [80.22907078257856, 21.79920990898152], [80.22908528297887, 21.79649971869251], [80.22618328092814, 21.79648615229346], [80.22619783363105, 21.793775962962155], [80.22329588841204, 21.793762347463648], [80.22331049340053, 21.791052159096985], [80.22040860501284, 21.791038494513067], [80.22042326226992, 21.78832830711795]], [[80.25521740919689, 21.79390931540662], [80.25520340213248, 21.796619522977732], [80.25230138004443, 21.796606415241875], [80.25231544167352, 21.793896209463373], [80.25232950111045, 21.791186002787864], [80.25523141407764, 21.791199106938556], [80.25813332922829, 21.79121216013981], [80.2581472773777, 21.78850194898937], [80.26104914015527, 21.788514949462467], [80.26395100509912, 21.78852789899279], [80.26685287220073, 21.78854079758016], [80.26975474145159, 21.788553645224432], [80.2697410114955, 21.791263863447256], [80.26683908769601, 21.79125101404534], [80.26393716604599, 21.791238113693353], [80.2639233248349, 21.793948327497265], [80.26102135078608, 21.79393537442372], [80.25811937890391, 21.793922370393457], [80.25521740919689, 21.79390931540662]], [[80.2780174294471, 21.780459091823495], [80.27559933620044, 21.780448517153882], [80.2780174294471, 21.78045909182349], [80.2780174294471, 21.780459091823495]], [[80.27516261850013, 21.867175253214477], [80.27758216922764, 21.867185874218173], [80.27758216922764, 21.867185874218176], [80.27516261850013, 21.867175253214477]], [[80.27810991240914, 21.810272585964537], [80.27810991250006, 21.810272585964935], [80.27810991248906, 21.81027258596489], [80.27810991231823, 21.81027258596414], [80.27810991240914, 21.810272585964537]], [[80.27525833657751, 21.848203858254017], [80.27767756786012, 21.848214469117504], [80.27767756786012, 21.848214469117508], [80.27525833657751, 21.848203858254017]], [[80.27787257642088, 21.712701046829185], [80.27787257642088, 21.71270104682919], [80.275939008813, 21.71269261602271], [80.27787257642088, 21.712701046829185]]]}, "properties": {"confidence_band": "Low", "site_id": "balaghat", "cell_count": 3502}}, {"type": "Feature", "geometry": {"type": "MultiPolygon", "coordinates": [[[[80.13301030298491, 21.847517348870056], [80.13302664991578, 21.844807239704632], [80.13304299430168, 21.842097129637605], [80.135945848291, 21.84211236207164], [80.13596213543099, 21.839402249023447], [80.13886493725514, 21.83941742830996], [80.13888116716625, 21.83670731228783], [80.13597842003497, 21.8366921350739], [80.13307567543947, 21.836676906799052], [80.13305933614284, 21.839387018669044], [80.13015653939921, 21.83937173724693], [80.13014014285707, 21.842081846128888], [80.1301237437617, 21.844791954109237], [80.13010734211285, 21.847502061187907], [80.13301030298491, 21.847517348870056]]], [[[80.12718792486564, 21.85019682650038], [80.12428491438338, 21.85018143454075], [80.12426839815751, 21.852891535621026], [80.12425187936047, 21.855601635799182], [80.12423535799208, 21.85831173507514], [80.12713853270368, 21.85832713333757], [80.12715499932045, 21.855617031960605], [80.12717146337437, 21.85290692968151], [80.13007453115385, 21.852922272639795], [80.13009093791031, 21.850212167364788], [80.13010734211285, 21.847502061187907], [80.12720438379446, 21.847486722417308], [80.12718792486564, 21.85019682650038]]], [[[80.1357338845967, 21.87734374963364], [80.13575020472437, 21.87463364831128], [80.13284669365635, 21.874618390915728], [80.13286306604863, 21.871908290771383], [80.12995961233116, 21.871892984304978], [80.12994318513567, 21.874603082361805], [80.12992675538432, 21.877313179515937], [80.13283031871674, 21.877328490157463], [80.1357338845967, 21.87734374963364]]], [[[80.16211902438441, 21.83411675853187], [80.16502173926834, 21.834131474179575], [80.16500600405332, 21.836841609441734], [80.16790877607416, 21.836856276036468], [80.17081155053711, 21.836870891568296], [80.17082717637896, 21.834160752307536], [80.1679244566027, 21.834146138771523], [80.16794013468933, 21.831436000606217], [80.16503747203294, 21.831421338016984], [80.16213481182675, 21.831406624378964], [80.15923215407929, 21.831391859692335], [80.15632949879908, 21.83137704395728], [80.15342684599463, 21.831362177173975], [80.1534108945203, 21.834072305255994], [80.15631360200187, 21.8340871740699], [80.15921631195941, 21.834101991828586], [80.16211902438441, 21.83411675853187]]], [[[80.17658606656958, 21.842320253204658], [80.17657054285138, 21.845030393735147], [80.17947348870256, 21.84504486200231], [80.17948895770793, 21.84233471949671], [80.17658606656958, 21.842320253204658]]], [[[80.1823764369624, 21.845059279184945], [80.17947348870256, 21.84504486200231], [80.17945801728852, 21.84775500360749], [80.17944254346563, 21.85046514431215], [80.18234560117713, 21.850479565431275], [80.18236102026994, 21.847769422758336], [80.1823764369624, 21.845059279184945]]]]}, "properties": {"confidence_band": "High", "site_id": "balaghat", "cell_count": 24}}, {"type": "Feature", "geometry": {"type": "MultiPolygon", "coordinates": [[[[80.12715499932045, 21.855617031960605], [80.12713853270368, 21.85832713333757], [80.12423535799208, 21.85831173507514], [80.12421883405206, 21.8610218334488], [80.12420230754024, 21.863731930920082], [80.12418577845638, 21.86644202748889], [80.12708911747404, 21.866457432054816], [80.12707264060367, 21.869167529822374], [80.12705616116935, 21.871877626687365], [80.12995961233116, 21.871892984304978], [80.13286306604863, 21.871908290771383], [80.13284669365635, 21.874618390915728], [80.13575020472437, 21.87463364831128], [80.13865371833118, 21.87464885454828], [80.13866998111638, 21.87193875024983], [80.13868624137152, 21.869228645049013], [80.14158964790943, 21.869243795994162], [80.1416058508479, 21.866533687824635], [80.1445092051201, 21.866548785565346], [80.14452535075895, 21.86383867443432], [80.14454149388544, 21.861128562401362], [80.14744474112132, 21.86114360489913], [80.14746082697397, 21.858433489912052], [80.1503640219516, 21.858448479240124], [80.15038005054748, 21.85573836130614], [80.15328319326645, 21.85575329747835], [80.15329916462257, 21.85304317660468], [80.15620225508243, 21.85305805963487], [80.15910534801976, 21.85307289156102], [80.162008443426, 21.853087672382962], [80.16491154129264, 21.853102402100518], [80.16781464161117, 21.853117080713503], [80.16783033679552, 21.850406948852612], [80.17073338481963, 21.8504215743646], [80.17363643527835, 21.850436148778634], [80.17653948816319, 21.850450672094546], [80.17944254346563, 21.85046514431215], [80.17945801728852, 21.84775500360749], [80.17947348870256, 21.84504486200231], [80.17657054285138, 21.845030393735147], [80.17658606656958, 21.842320253204658], [80.17660158787082, 21.839610111773748], [80.17369875385359, 21.839595596386324], [80.17371432743366, 21.836885456037038], [80.17081155053711, 21.836870891568296], [80.16790877607416, 21.836856276036468], [80.16500600405332, 21.836841609441734], [80.16502173926834, 21.834131474179575], [80.16211902438441, 21.83411675853187], [80.15921631195941, 21.834101991828586], [80.15631360200187, 21.8340871740699], [80.1534108945203, 21.834072305255994], [80.15342684599463, 21.831362177173975], [80.15052419567446, 21.831347259342603], [80.14762154784708, 21.831332290463347], [80.144718902521, 21.83131727053638], [80.14470278701658, 21.834027392484767], [80.14180008952405, 21.83401231945179], [80.13889739455007, 21.833997195364496], [80.13888116716625, 21.83670731228783], [80.13886493725514, 21.83941742830996], [80.13596213543099, 21.839402249023447], [80.135945848291, 21.84211236207164], [80.13304299430168, 21.842097129637605], [80.13302664991578, 21.844807239704632], [80.13301030298491, 21.847517348870056], [80.13010734211285, 21.847502061187907], [80.13009093791031, 21.850212167364788], [80.13007453115385, 21.852922272639795], [80.12717146337437, 21.85290692968151], [80.12715499932045, 21.855617031960605]]], [[[80.18839639202153, 21.80714580096968], [80.19129858223991, 21.807160037643076], [80.19131379916871, 21.80444987471415], [80.1942159371642, 21.804464058460677], [80.19423109713527, 21.801753892693757], [80.19713318290745, 21.801768023527256], [80.20003527103401, 21.801782103386717], [80.2000503194863, 21.799071932863843], [80.20295235538043, 21.79908595983091], [80.20296734691729, 21.79637578649149], [80.20586933057865, 21.79638976058], [80.20588426521712, 21.79367958443123], [80.20589919752736, 21.790969407384377], [80.2029973229804, 21.79095543711799], [80.20298233611722, 21.79366561225382], [80.20008040935407, 21.793651589122955], [80.19717848493619, 21.793637515038803], [80.19716338661397, 21.796347685433375], [80.194261409989, 21.796333558464095], [80.19424625474346, 21.799043726028206], [80.1913442259118, 21.79902954615997], [80.19132901372595, 21.801739710886416], [80.188426932688, 21.801725478105396], [80.1884116635448, 21.80443563998697], [80.18839639202153, 21.80714580096968]]], [[[80.22618328092814, 21.79648615229346], [80.22908528297887, 21.79649971869251], [80.22907078257856, 21.79920990898152], [80.23197284146138, 21.799223426267087], [80.23487490259629, 21.799236892583597], [80.23777696597476, 21.799250307930876], [80.2377913026594, 21.796540112117455], [80.23780563710916, 21.79382991540659], [80.23490368286635, 21.793816503728248], [80.23491806963649, 21.79110630795441], [80.23201617219173, 21.791092847162115], [80.23203061126524, 21.788382652332242], [80.22912877061817, 21.788369142440036], [80.22622693223093, 21.788355581606805], [80.22332509611202, 21.78834196983272], [80.22042326226992, 21.78832830711795], [80.22040860501284, 21.791038494513067], [80.22331049340053, 21.791052159096985], [80.22329588841204, 21.793762347463648], [80.22619783363105, 21.793775962962155], [80.22618328092814, 21.79648615229346]]], [[[80.26685287220073, 21.78854079758016], [80.26395100509912, 21.78852789899279], [80.26104914015527, 21.788514949462467], [80.2581472773777, 21.78850194898937], [80.25813332922829, 21.79121216013981], [80.25523141407764, 21.791199106938556], [80.25232950111045, 21.791186002787864], [80.25231544167352, 21.793896209463373], [80.25230138004443, 21.796606415241875], [80.25520340213248, 21.796619522977732], [80.25521740919689, 21.79390931540662], [80.25811937890391, 21.793922370393457], [80.26102135078608, 21.79393537442372], [80.2639233248349, 21.793948327497265], [80.26393716604599, 21.791238113693353], [80.26683908769601, 21.79125101404534], [80.2697410114955, 21.791263863447256], [80.26975474145159, 21.788553645224432], [80.26685287220073, 21.78854079758016]]]]}, "properties": {"confidence_band": "Very High", "site_id": "balaghat", "cell_count": 186}}]}