{"type": "FeatureCollection", "site_id": "bhandara", "site_name": "Bhandara", "provenance": {"status": "PLACEHOLDER_SCORES", "warning": "Geometry, grid, kriging, classification and export are real. Model scores and factor values are PLACEHOLDERS \u2014 Part 1 (GEE features) and Part 4 (training) are blocked pending Earth Engine credentials and real deposit ground truth. NOT a prospectivity result.", "interpolation_method": ["ordinary_kriging_spherical"], "generated_utc": "2026-09-04T04:38:51.028195+00:00"}, "features": [{"type": "Feature", "geometry": {"type": "MultiPolygon", "coordinates": [[[[79.58563177036876, 21.115192756845314], [79.58565745530125, 21.112482928599462], [79.58854533379832, 21.11250700346598], [79.58857096225833, 21.109797170946404], [79.59145879243114, 21.109821193269813], [79.59434662666543, 21.10984516642808], [79.59437214628322, 21.107135326277678], [79.59725993218393, 21.107159246913078], [79.60014772212917, 21.107183118389663], [79.60017313293702, 21.10447327063659], [79.60306087453935, 21.10449708961054], [79.60594862016923, 21.104520859432], [79.60596970519381, 21.10226264671881], [79.60596970547347, 21.102262646721112], [79.60885741147914, 21.102286364615107], [79.61174512149545, 21.102310033361793], [79.61177031544725, 21.099600170636844], [79.60888265779575, 21.099576505212777], [79.60599500415455, 21.099552790648293], [79.60310735453197, 21.09952902694367], [79.60021970893631, 21.099505214099203], [79.5973320673759, 21.099481352115173], [79.59444442985904, 21.099457440991873], [79.59155679639406, 21.099433480729584], [79.58866916698926, 21.099409471328595], [79.58578154165298, 21.0993854127892], [79.58289392039352, 21.09936130511169], [79.58000630321918, 21.099337148296343], [79.57998268077733, 21.10182115432464], [79.5799590551902, 21.104305161573222], [79.57993327773823, 21.107014985728483], [79.57990749619188, 21.109724808988226], [79.57988171055077, 21.112434631352343], [79.57985592081458, 21.11514445282075], [79.58274384354813, 21.115168629422065], [79.58563177036876, 21.115192756845314]], [[79.60308622866039, 21.10178723761715], [79.60308622866037, 21.10178723761715], [79.60310735453197, 21.09952902694367], [79.60308622866039, 21.10178723761715]]], [[[79.57945824874805, 21.207281901217108], [79.57943232425401, 21.209991691842177], [79.57940639565415, 21.212701481568136], [79.57938046294811, 21.215411270394878], [79.57935452613553, 21.218121058322318], [79.57932858521613, 21.22083084535036], [79.57930264018952, 21.223540631478905], [79.57927669105538, 21.226250416707867], [79.57925073781338, 21.22896020103715], [79.57922478046316, 21.231669984466638], [79.57919881900439, 21.234379766996263], [79.57917285343675, 21.237089548625917], [79.57914688375986, 21.239799329355503], [79.5815555025904, 21.239819599787563], [79.58155550255749, 21.23981960322688], [79.58179636445999, 21.239821626830654], [79.58203722665905, 21.23982365387652], [79.58203722669195, 21.2398236504372], [79.58444584887494, 21.239843886501472], [79.58733619928664, 21.239868120280086], [79.59022655378425, 21.239892304562424], [79.59311691235942, 21.239916439348203], [79.5960072750038, 21.239940524637124], [79.59889764170902, 21.23996456042891], [79.60178801246674, 21.239988546723257], [79.60467838726862, 21.240012483519887], [79.6075687661063, 21.240036370818498], [79.61045914897143, 21.240060208618818], [79.61334953585566, 21.240083996920557], [79.61623992675064, 21.240107735723413], [79.61913032164802, 21.24013142502712], [79.62202072053941, 21.240155064831377], [79.62491112341652, 21.240178655135914], [79.62780153027097, 21.24020219594043], [79.63069194109441, 21.240225687244653], [79.63358235587849, 21.240249129048298], [79.63647277461483, 21.240272521351077], [79.63936319729514, 21.240295864152714], [79.63938806721289, 21.23758601408993], [79.63941293319539, 21.234876163129535], [79.63652261609016, 21.234852826846705], [79.63363230292823, 21.23482944107655], [79.63365727052549, 21.232119595744013], [79.63076701408954, 21.232096163759877], [79.62787676161325, 21.232072682295886], [79.62790183079089, 21.229362842618475], [79.62501163504795, 21.229339314961685], [79.62503675301492, 21.226629477673118], [79.6250618670062, 21.22391963948675], [79.62217178074428, 21.223896068944565], [79.62219694350017, 21.2211862331538], [79.61930691396164, 21.22116261645358], [79.61933212546543, 21.218452783065178], [79.61935733297781, 21.215742948779013], [79.61646741288463, 21.215719289241644], [79.61649266912022, 21.2130094573646], [79.61651792135672, 21.21029962458986], [79.61362811068251, 21.210275922242793], [79.61365341161752, 21.20756609188393], [79.61076365764737, 21.207542343434362], [79.61078900726419, 21.20483251549813], [79.6108143528662, 21.202122686664254], [79.60792470827934, 21.202098895453208], [79.6079501025385, 21.19938906904872], [79.60506051464567, 21.19936523176993], [79.60508595754526, 21.196655407801586], [79.60219642634583, 21.196631524469044], [79.60222191786917, 21.19392170294361], [79.59933244336244, 21.19389777357129], [79.59935798349288, 21.191187954495533], [79.5964685656782, 21.191163979097432], [79.59649415439901, 21.188454162478113], [79.59360479327572, 21.188430141068196], [79.59071543621525, 21.188406070292686], [79.58782608322596, 21.188381950151868], [79.58493673431617, 21.188357780646026], [79.58228816808402, 21.188335580013465], [79.57963960527128, 21.188313341674373], [79.57961370950864, 21.191023138590587], [79.57958780964252, 21.19373293460835], [79.57956190567258, 21.19644272972758], [79.57953599759851, 21.199152523948158], [79.57951008541995, 21.201862317270002], [79.57948416913659, 21.204572109693014], [79.57945824874805, 21.207281901217108]], [[79.58187411591453, 21.231692272600736], [79.58187411605458, 21.23169227260191], [79.5818741161064, 21.23169227260235], [79.58187411601047, 21.231692272601542], [79.58187411591453, 21.231692272600736]]]]}, "properties": {"confidence_band": "Very Low", "site_id": "bhandara", "cell_count": 290}}, {"type": "Feature", "geometry": {"type": "Polygon", "coordinates": [[[79.58274384354813, 21.115168629422065], [79.57985592081458, 21.11514445282075], [79.57983012698298, 21.11785427339335], [79.57980432905565, 21.12056409307005], [79.57977852703222, 21.12327391185074], [79.57975272091237, 21.125983729735342], [79.57972691069577, 21.128693546723763], [79.57970109638207, 21.131403362815888], [79.58258933370043, 21.131427559772714], [79.58547757510789, 21.131451707510077], [79.58836582059614, 21.13147580602768], [79.59125407015684, 21.131499855325238], [79.59414232378168, 21.13152385540245], [79.59703058146235, 21.131547806259036], [79.5999188431905, 21.131571707894704], [79.60280710895782, 21.131595560309165], [79.60283250364931, 21.128885717267185], [79.60572072099319, 21.128909517122477], [79.60860894235928, 21.128933267762896], [79.60863422812803, 21.12622341715735], [79.61152240106135, 21.126247115258845], [79.61149716773922, 21.128956969188152], [79.61147193041155, 21.13166682222247], [79.61144668907801, 21.134376674361715], [79.61142144373827, 21.13708652560578], [79.61139619439199, 21.139796375954578], [79.61137094103886, 21.14250622540801], [79.60848245330098, 21.142482507362196], [79.60845714344408, 21.145192352595704], [79.60843182957134, 21.147902196933543], [79.60554324084819, 21.147878422975214], [79.6055178704464, 21.150588263085687], [79.60262923323522, 21.15056443652567], [79.59974060005719, 21.15054056069585], [79.59971512058911, 21.1532503932262], [79.59682643893235, 21.15322646477444], [79.59393776132576, 21.15320248704655], [79.59104908777765, 21.153178460042813], [79.5910234466831, 21.15588828159852], [79.58813472467426, 21.155864201945988], [79.58816041829635, 21.153154383763525], [79.5852717528902, 21.15313025820898], [79.58262381309248, 21.15310809794648], [79.57997587692394, 21.15308590004779], [79.57995003447562, 21.155795708635218], [79.57992418792823, 21.158505516325434], [79.57989833728142, 21.16121532311833], [79.57987248253487, 21.16392512901383], [79.57984662368821, 21.166634934011824], [79.57982076074114, 21.169344738112226], [79.57979489369329, 21.17205454131494], [79.57976902254435, 21.174764343619863], [79.57974314729397, 21.1774741450269], [79.5797172679418, 21.180183945535973], [79.57969138448753, 21.18289374514697], [79.5796654969308, 21.185603543859802], [79.57963960527128, 21.188313341674373], [79.58204738952693, 21.18833355834527], [79.58204738949422, 21.18833356177547], [79.58228816808402, 21.188335580013465], [79.58252894668031, 21.188337601681987], [79.58252894671303, 21.18833759825179], [79.58493673431617, 21.188357780646026], [79.58782608322596, 21.188381950151868], [79.59071543621525, 21.188406070292686], [79.59360479327572, 21.188430141068196], [79.59649415439901, 21.188454162478113], [79.5964685656782, 21.191163979097432], [79.59935798349288, 21.191187954495533], [79.59933244336244, 21.19389777357129], [79.60222191786917, 21.19392170294361], [79.60219642634583, 21.196631524469044], [79.60508595754526, 21.196655407801586], [79.60506051464567, 21.19936523176993], [79.6079501025385, 21.19938906904872], [79.60792470827934, 21.202098895453208], [79.6108143528662, 21.202122686664254], [79.61078900726419, 21.20483251549813], [79.61076365764737, 21.207542343434362], [79.61365341161752, 21.20756609188393], [79.61362811068251, 21.210275922242793], [79.61651792135672, 21.21029962458986], [79.61649266912022, 21.2130094573646], [79.61646741288463, 21.215719289241644], [79.61935733297781, 21.215742948779013], [79.61933212546543, 21.218452783065178], [79.61930691396164, 21.22116261645358], [79.62219694350017, 21.2211862331538], [79.62217178074428, 21.223896068944565], [79.6250618670062, 21.22391963948675], [79.62503675301492, 21.226629477673118], [79.62501163504795, 21.229339314961685], [79.62790183079089, 21.229362842618475], [79.62787676161325, 21.232072682295886], [79.63076701408954, 21.232096163759877], [79.63365727052549, 21.232119595744013], [79.63363230292823, 21.23482944107655], [79.63652261609016, 21.234852826846705], [79.63941293319539, 21.234876163129535], [79.63938806721289, 21.23758601408993], [79.63936319729514, 21.240295864152714], [79.642253623911, 21.240319157452923], [79.64514405445411, 21.240342401251432], [79.6480344889161, 21.240365595547946], [79.6509249272886, 21.240388740342205], [79.65381536956328, 21.24041183563391], [79.65670581573177, 21.240434881422797], [79.65959626578575, 21.240457877708586], [79.65959859916383, 21.240199793509863], [79.66235140771201, 21.24022164954469], [79.6623735288952, 21.237769856048036], [79.66251116702007, 21.237770948599188], [79.66249079458089, 21.240029178571653], [79.66538124358107, 21.24005207531752], [79.6682716964416, 21.240074922560613], [79.67116215315413, 21.240097720300653], [79.67405261371032, 21.240120468537363], [79.6769430781018, 21.240143167270478], [79.67983354632024, 21.240165816499708], [79.68272401835728, 21.240188416224786], [79.68561449420454, 21.24021096644545], [79.6885049738537, 21.240233467161413], [79.69139545729641, 21.240255918372426], [79.69428594452428, 21.240278320078193], [79.697176435529, 21.240300672278458], [79.70006693030219, 21.240322974972955], [79.70295742883552, 21.240345228161402], [79.7058479311206, 21.240367431843538], [79.70873843714911, 21.2403895860191], [79.71162894691268, 21.240411690687807], [79.71451946040297, 21.240433745849412], [79.71740997761161, 21.240455751503635], [79.72030049853026, 21.240477707650218], [79.72031999103264, 21.238219425484786], [79.7203199912902, 21.238219425486744], [79.7203219403286, 21.237993591970326], [79.72032388953373, 21.237767768979502], [79.72032388927617, 21.237767768977545], [79.72034337920921, 21.235509486070626], [79.72036676342712, 21.23279954576013], [79.72039014394426, 21.230089604555335], [79.72041352076091, 21.227379662456336], [79.72043689387739, 21.224669719463233], [79.72046026329402, 21.221959775576117], [79.72048362901107, 21.21924983079508], [79.72000194419212, 21.219246175437828], [79.72002531496926, 21.21653623370934], [79.72004868207569, 21.213826287651088], [79.72007204548207, 21.21111634069919], [79.72009540518873, 21.208406392853725], [79.72011876119595, 21.20569644411479], [79.72014211350407, 21.20298649448248], [79.72016546211336, 21.200276543956896], [79.72018880702412, 21.19756659253812], [79.72021214823668, 21.19485664022626], [79.72023548575136, 21.192146687021392], [79.72025881956843, 21.189436732923618], [79.7202821496882, 21.186726777933043], [79.72030547611098, 21.184016822049745], [79.72032879883709, 21.181306865273825], [79.7203521178668, 21.178596907605375], [79.72037543320045, 21.175886949044493], [79.72039874483832, 21.173176989591273], [79.72042205278073, 21.170467029245803], [79.72044535702798, 21.16775706800818], [79.72046865758037, 21.165047105878497], [79.72049195443822, 21.162337142856853], [79.7205152476018, 21.159627178943346], [79.72053853707145, 21.156917214138048], [79.72056182284744, 21.154207248441075], [79.72058510493011, 21.15149728185252], [79.72060838331974, 21.148787314372456], [79.72063165801664, 21.146077346001004], [79.72065492902112, 21.14336737673824], [79.72067819633348, 21.140657406584268], [79.72070145995401, 21.137947435539175], [79.72072471988304, 21.135237463603058], [79.72074797612085, 21.13252749077601], [79.72077122866776, 21.129817517058132], [79.72079447752405, 21.127107542449505], [79.72081772269006, 21.124397566950233], [79.72084096416606, 21.121687590560416], [79.72086420195235, 21.118977613280126], [79.72088743604928, 21.11626763510948], [79.7209106664571, 21.113557656048563], [79.72093389317615, 21.110847676097467], [79.72095711620672, 21.108137695256286], [79.72071645330003, 21.108135877358517], [79.72073774196535, 21.10565172958598], [79.71857181400216, 21.105635367553], [79.71857375254639, 21.10540954053317], [79.7185737525933, 21.105409535067825], [79.72049901874351, 21.105424081658054], [79.72052224312866, 21.102714099546795], [79.72054546382483, 21.100004116545716], [79.71813896854268, 21.09998593841337], [79.71573247600975, 21.099967732980932], [79.71284468825492, 21.099945837309427], [79.70995690421094, 21.09992389248878], [79.70706912388611, 21.099901898519235], [79.70418134728875, 21.099879855401078], [79.7012935744272, 21.09985776313456], [79.69840580530973, 21.09983562171994], [79.69551803994472, 21.099813431157514], [79.69263027834043, 21.099791191447515], [79.6897425205052, 21.099768902590235], [79.68685476644737, 21.099746564585928], [79.68396701617523, 21.099724177434872], [79.6810792696971, 21.099701741137334], [79.6781915270213, 21.099679255693584], [79.67530378815616, 21.099656721103884], [79.67241605310996, 21.099634137368522], [79.66952832189106, 21.09961150448775], [79.66664059450775, 21.099588822461858], [79.66375287096838, 21.099566091291113], [79.66375056138872, 21.099824177975208], [79.661000347482, 21.09980248437743], [79.66097836093519, 21.102254314205638], [79.66084084822425, 21.10225322927834], [79.66084084795561, 21.102253229276215], [79.66086110103984, 21.09999496408816], [79.65797337648566, 21.099972134094315], [79.6550856558004, 21.099949254955288], [79.65219793899239, 21.099926326671355], [79.64931022606993, 21.099903349242794], [79.64642251704133, 21.099880322669883], [79.64353481191492, 21.099857246952894], [79.640647110699, 21.099834122092105], [79.63775941340194, 21.099810948087796], [79.63487172003198, 21.099787724940246], [79.6319840305975, 21.09976445264974], [79.62909634510676, 21.099741131216543], [79.62620866356812, 21.09971776064095], [79.62332098598988, 21.09969434092324], [79.62043331238036, 21.09967087206369], [79.61754564274786, 21.099647354062586], [79.61465797710072, 21.09962378692021], [79.61177031544725, 21.099600170636844], [79.61174932048685, 21.101858389634106], [79.60886161947708, 21.10183472144348], [79.6059739221994, 21.101811004104412], [79.60594862016923, 21.104520859432], [79.60306087453935, 21.10449708961054], [79.60017313293702, 21.10447327063659], [79.60014772212917, 21.107183118389663], [79.59725993218393, 21.107159246913078], [79.59437214628322, 21.107135326277678], [79.59434662666543, 21.10984516642808], [79.59145879243114, 21.109821193269813], [79.58857096225833, 21.109797170946404], [79.58854533379832, 21.11250700346598], [79.58565745530125, 21.112482928599462], [79.58563177036876, 21.115192756845314], [79.58274384354813, 21.115168629422065]], [[79.63773881146311, 21.102069191748164], [79.63773881118983, 21.102069191745965], [79.63775941340194, 21.099810948087796], [79.63773881146311, 21.102069191748164]], [[79.58255478574594, 21.18562779704344], [79.58496252949335, 21.185647976613946], [79.58255478574594, 21.185627797043445], [79.58255478574594, 21.18562779704344]], [[79.63773469047477, 21.102520840403624], [79.63773469074806, 21.102520840405823], [79.63771408553639, 21.10477908332202], [79.63773469047477, 21.102520840403624]], [[79.65217347791162, 21.10263623518638], [79.65217347791163, 21.10263623518638], [79.65215309120504, 21.104894491604455], [79.65217347791162, 21.10263623518638]], [[79.68009475309867, 21.210808571668213], [79.68011884191432, 21.208098666847583], [79.67722899789923, 21.20807605503627], [79.67725313559605, 21.205366152482007], [79.67436334809989, 21.20534349441686], [79.67438753466115, 21.20263359413575], [79.67441171739151, 21.199923692959622], [79.67443589629124, 21.19721379088856], [79.67732552575038, 21.197236439449576], [79.6773496481575, 21.194526533315866], [79.67737376674299, 21.19181662628752], [79.68026329470709, 21.191839219132348], [79.68028735682529, 21.189129308048777], [79.6831768359561, 21.189151848358893], [79.68320084162372, 21.18644193322732], [79.68609027192059, 21.186464421016378], [79.68897970601317, 21.18648685943778], [79.69186914389307, 21.18650924849125], [79.69189298786597, 21.183799323046323], [79.69478237689403, 21.18382165960567], [79.6976717696924, 21.18384394680346], [79.70056116625281, 21.183866184639427], [79.7005374801734, 21.186576119441437], [79.70342693311923, 21.18659831102052], [79.70631638981074, 21.186620453230343], [79.70629280525789, 21.189330393342626], [79.70918231832741, 21.18935248927442], [79.70915878268603, 21.192062431584986], [79.7120483521342, 21.19208448122478], [79.71202486542099, 21.19479442572684], [79.71491449124842, 21.19481642906066], [79.71489105348005, 21.197526375747433], [79.71486761199816, 21.200236321540924], [79.71484416680245, 21.202946266441018], [79.71482071789266, 21.205656210447643], [79.71193088134967, 21.20563419480111], [79.71190737602568, 21.208344134835702], [79.70901749050601, 21.20832206668538], [79.70899392875118, 21.21103200274073], [79.70610399425547, 21.211009882072958], [79.70608037605307, 21.21371981414184], [79.7031903925819, 21.21369764094296], [79.70030041285946, 21.213675418305726], [79.69741043689409, 21.213653146230406], [79.69452046469414, 21.213630824717274], [79.69163049626796, 21.21360845376659], [79.68874053162388, 21.213586033378625], [79.68876446611472, 21.210876120009775], [79.68587455797476, 21.21085365332566], [79.6829846536333, 21.210831137211716], [79.68009475309867, 21.210808571668213]], [[79.69812209077102, 21.132355075042433], [79.69814575430061, 21.129645125500925], [79.69525741237521, 21.12962290066059], [79.69528112460516, 21.126912953344203], [79.69530483307128, 21.124203005136202], [79.69532853777385, 21.1214930560367], [79.69821672235565, 21.121515271527205], [79.6982403708638, 21.118805318419884], [79.70112850676897, 21.118827481597876], [79.7040166464204, 21.11884959557946], [79.70404018632723, 21.116139635369077], [79.70692827729279, 21.11616169705842], [79.70981637198764, 21.11618370955775], [79.71270447040348, 21.116205672866784], [79.71559257253199, 21.11622758698527], [79.71556924232227, 21.11893755953657], [79.71268108776901, 21.118915642343215], [79.71265770142159, 21.12162561092897], [79.71263431136087, 21.124335578623956], [79.71261091758657, 21.12704554542809], [79.70972260942307, 21.12702356979129], [79.70969915947714, 21.129733532622264], [79.70681080257842, 21.12971150467846], [79.70678729644425, 21.13242146352905], [79.70389889081092, 21.13239938326459], [79.70387532847184, 21.135109338127595], [79.70098687410453, 21.135087205528833], [79.69809842348533, 21.135065023692267], [79.69812209077102, 21.132355075042433]], [[79.7175935214623, 21.21922789866193], [79.71759352149199, 21.219227895225927], [79.71879773160127, 21.219237037040575], [79.7175935214623, 21.21922789866193]]]}, "properties": {"confidence_band": "Low", "site_id": "bhandara", "cell_count": 2026}}, {"type": "Feature", "geometry": {"type": "MultiPolygon", "coordinates": [[[[79.60569537875598, 21.131619363502146], [79.60858365257667, 21.13164311747334], [79.60855835877987, 21.134352966288592], [79.60853306096854, 21.137062814208544], [79.60564468221368, 21.137039053575435], [79.6056193279079, 21.139748897268873], [79.60559396957862, 21.14245874006671], [79.60556860722549, 21.145168581968857], [79.60268007503109, 21.145144762085724], [79.60265465614957, 21.1478545997537], [79.59976607548376, 21.147830727269284], [79.59974060005719, 21.15054056069585], [79.60262923323522, 21.15056443652567], [79.6055178704464, 21.150588263085687], [79.60554324084819, 21.147878422975214], [79.60843182957134, 21.147902196933543], [79.60845714344408, 21.145192352595704], [79.60848245330098, 21.142482507362196], [79.61137094103886, 21.14250622540801], [79.61139619439199, 21.139796375954578], [79.61142144373827, 21.13708652560578], [79.61144668907801, 21.134376674361715], [79.61147193041155, 21.13166682222247], [79.61149716773922, 21.128956969188152], [79.61152240106135, 21.126247115258845], [79.60863422812803, 21.12622341715735], [79.60860894235928, 21.128933267762896], [79.60572072099319, 21.128909517122477], [79.60569537875598, 21.131619363502146]]], [[[79.58547757510789, 21.131451707510077], [79.58258933370043, 21.131427559772714], [79.57970109638207, 21.131403362815888], [79.57967527797094, 21.134113178011635], [79.57964945546203, 21.13682299231091], [79.57962362885503, 21.139532805713614], [79.58251202357813, 21.139557012849814], [79.58253779770857, 21.136847196053864], [79.58542614404489, 21.136871350563553], [79.58545186161695, 21.134161529484935], [79.58834015956579, 21.134185631381744], [79.58836582059614, 21.13147580602768], [79.58547757510789, 21.131451707510077]]], [[[79.71265770142159, 21.12162561092897], [79.71268108776901, 21.118915642343215], [79.71556924232227, 21.11893755953657], [79.71559257253199, 21.11622758698527], [79.71270447040348, 21.116205672866784], [79.70981637198764, 21.11618370955775], [79.70979293692875, 21.1188936759524], [79.70976949814856, 21.12160364145627], [79.71265770142159, 21.12162561092897]]], [[[79.7091352433151, 21.19477237300223], [79.70911170021427, 21.19748231352607], [79.70908815338325, 21.200192253156395], [79.70906460282175, 21.202902191893116], [79.70904104852944, 21.205612129736142], [79.70901749050601, 21.20832206668538], [79.71190737602568, 21.208344134835702], [79.71193088134967, 21.20563419480111], [79.71482071789266, 21.205656210447643], [79.71484416680245, 21.202946266441018], [79.71486761199816, 21.200236321540924], [79.71489105348005, 21.197526375747433], [79.71491449124842, 21.19481642906066], [79.71202486542099, 21.19479442572684], [79.7120483521342, 21.19208448122478], [79.70915878268603, 21.192062431584986], [79.7091352433151, 21.19477237300223]]]]}, "properties": {"confidence_band": "High", "site_id": "bhandara", "cell_count": 33}}, {"type": "Feature", "geometry": {"type": "MultiPolygon", "coordinates": [[[[79.58542614404489, 21.136871350563553], [79.58253779770857, 21.136847196053864], [79.58251202357813, 21.139557012849814], [79.57962362885503, 21.139532805713614], [79.57959779814958, 21.14224261821965], [79.57957196334536, 21.144952429828926], [79.57954612444202, 21.14766224054135], [79.57952028143922, 21.150372050356825], [79.58120529914989, 21.15038617909024], [79.58000171527351, 21.150376090563245], [79.57997587692394, 21.15308590004779], [79.58238309160011, 21.1531060799555], [79.58238309156752, 21.15310608337946], [79.58262381309248, 21.15310809794648], [79.58286453483737, 21.153110115939572], [79.58286453486996, 21.15311011251561], [79.5852717528902, 21.15313025820898], [79.58816041829635, 21.153154383763525], [79.58813472467426, 21.155864201945988], [79.5910234466831, 21.15588828159852], [79.59104908777765, 21.153178460042813], [79.59393776132576, 21.15320248704655], [79.59682643893235, 21.15322646477444], [79.59971512058911, 21.1532503932262], [79.59974060005719, 21.15054056069585], [79.59976607548376, 21.147830727269284], [79.60265465614957, 21.1478545997537], [79.60268007503109, 21.145144762085724], [79.60556860722549, 21.145168581968857], [79.60559396957862, 21.14245874006671], [79.6056193279079, 21.139748897268873], [79.60564468221368, 21.137039053575435], [79.60853306096854, 21.137062814208544], [79.60855835877987, 21.134352966288592], [79.60858365257667, 21.13164311747334], [79.60569537875598, 21.131619363502146], [79.60572072099319, 21.128909517122477], [79.60283250364931, 21.128885717267185], [79.60280710895782, 21.131595560309165], [79.5999188431905, 21.131571707894704], [79.59703058146235, 21.131547806259036], [79.59414232378168, 21.13152385540245], [79.59125407015684, 21.131499855325238], [79.58836582059614, 21.13147580602768], [79.58834015956579, 21.134185631381744], [79.58545186161695, 21.134161529484935], [79.58542614404489, 21.136871350563553]]], [[[79.67443589629124, 21.19721379088856], [79.67441171739151, 21.199923692959622], [79.67438753466115, 21.20263359413575], [79.67436334809989, 21.20534349441686], [79.67725313559605, 21.205366152482007], [79.67722899789923, 21.20807605503627], [79.68011884191432, 21.208098666847583], [79.68009475309867, 21.210808571668213], [79.6829846536333, 21.210831137211716], [79.68587455797476, 21.21085365332566], [79.68876446611472, 21.210876120009775], [79.68874053162388, 21.213586033378625], [79.69163049626796, 21.21360845376659], [79.69452046469414, 21.213630824717274], [79.69741043689409, 21.213653146230406], [79.70030041285946, 21.213675418305726], [79.7031903925819, 21.21369764094296], [79.70608037605307, 21.21371981414184], [79.70610399425547, 21.211009882072958], [79.70899392875118, 21.21103200274073], [79.70901749050601, 21.20832206668538], [79.70904104852944, 21.205612129736142], [79.70906460282175, 21.202902191893116], [79.70908815338325, 21.200192253156395], [79.70911170021427, 21.19748231352607], [79.7091352433151, 21.19477237300223], [79.70915878268603, 21.192062431584986], [79.70918231832741, 21.18935248927442], [79.70629280525789, 21.189330393342626], [79.70631638981074, 21.186620453230343], [79.70342693311923, 21.18659831102052], [79.7005374801734, 21.186576119441437], [79.70056116625281, 21.183866184639427], [79.6976717696924, 21.18384394680346], [79.69478237689403, 21.18382165960567], [79.69189298786597, 21.183799323046323], [79.69186914389307, 21.18650924849125], [79.68897970601317, 21.18648685943778], [79.68609027192059, 21.186464421016378], [79.68320084162372, 21.18644193322732], [79.6831768359561, 21.189151848358893], [79.68028735682529, 21.189129308048777], [79.68026329470709, 21.191839219132348], [79.67737376674299, 21.19181662628752], [79.6773496481575, 21.194526533315866], [79.67732552575038, 21.197236439449576], [79.67443589629124, 21.19721379088856]]], [[[79.69525741237521, 21.12962290066059], [79.69814575430061, 21.129645125500925], [79.69812209077102, 21.132355075042433], [79.69809842348533, 21.135065023692267], [79.70098687410453, 21.135087205528833], [79.70387532847184, 21.135109338127595], [79.70389889081092, 21.13239938326459], [79.70678729644425, 21.13242146352905], [79.70681080257842, 21.12971150467846], [79.70969915947714, 21.129733532622264], [79.70972260942307, 21.12702356979129], [79.71261091758657, 21.12704554542809], [79.71263431136087, 21.124335578623956], [79.71265770142159, 21.12162561092897], [79.70976949814856, 21.12160364145627], [79.70979293692875, 21.1188936759524], [79.70981637198764, 21.11618370955775], [79.70692827729279, 21.11616169705842], [79.70404018632723, 21.116139635369077], [79.7040166464204, 21.11884959557946], [79.70112850676897, 21.118827481597876], [79.6982403708638, 21.118805318419884], [79.69821672235565, 21.121515271527205], [79.69532853777385, 21.1214930560367], [79.69530483307128, 21.124203005136202], [79.69528112460516, 21.126912953344203], [79.69525741237521, 21.12962290066059]]]]}, "properties": {"confidence_band": "Very High", "site_id": "bhandara", "cell_count": 199}}]}