{"type": "FeatureCollection", "site_id": "nagpur", "site_name": "Nagpur", "provenance": {"status": "PLACEHOLDER_SCORES", "warning": "Geometry, grid, kriging, classification and export are real. Model scores and factor values are PLACEHOLDERS \u2014 Part 1 (GEE features) and Part 4 (training) are blocked pending Earth Engine credentials and real deposit ground truth. NOT a prospectivity result.", "interpolation_method": ["ordinary_kriging_spherical"], "generated_utc": "2026-09-04T04:38:39.969282+00:00"}, "features": [{"type": "Feature", "geometry": {"type": "MultiPolygon", "coordinates": [[[[79.02059460820794, 21.069226601966765], [79.01770841815473, 21.069192918728724], [79.01482223380962, 21.069159186483336], [79.01217656951621, 21.069128220328924], [79.00953091069638, 21.069097216751825], [79.00950085868962, 21.071354723480592], [79.00947080305201, 21.073612263228583], [79.0094347308223, 21.076321289884277], [79.00939865285974, 21.07903031561707], [79.00936256916384, 21.081739340426864], [79.00932647973413, 21.084448364313566], [79.00929038457014, 21.08715738727707], [79.00925428367141, 21.089866409317267], [79.00921817703744, 21.092575430434078], [79.00918206466778, 21.095284450627386], [79.00914594656197, 21.09799346989709], [79.00910982271952, 21.100702488243098], [79.00907369313997, 21.103411505665303], [79.01196052889746, 21.10344538797039], [79.01199660617343, 21.100736365793473], [79.01199660621887, 21.100736362380523], [79.01440226342822, 21.1007645595885], [79.01728905737859, 21.100798347145844], [79.01732503304987, 21.098089315346535], [79.02021178041723, 21.098123049081163], [79.0230985334894, 21.09815673373459], [79.02313439887048, 21.095447691549225], [79.02602110534993, 21.095481322399962], [79.02890781751711, 21.09551490417556], [79.0289435726398, 21.09280585163245], [79.03183023820456, 21.092839379625378], [79.03471690944001, 21.09287285854926], [79.0347525543361, 21.090163795676705], [79.03763917895942, 21.090197220837933], [79.04052580923636, 21.090230596936188], [79.04056134393767, 21.087521523762515], [79.0434479275928, 21.087554846118135], [79.04633451688447, 21.08758811941687], [79.04636994142278, 21.084879035970364], [79.04925648408299, 21.08491225554649], [79.04929185074204, 21.082203166513736], [79.05217834676981, 21.08223633238079], [79.0550648484083, 21.082269449203533], [79.05510010496063, 21.079560349940625], [79.05798655995704, 21.079593413074317], [79.05802175867112, 21.076884308246832], [79.05805695179198, 21.074175202499223], [79.05808627473127, 21.071917613668955], [79.05808627512042, 21.07191761367341], [79.05808920716858, 21.07169184374717], [79.05809213932005, 21.07146609583159], [79.05809213893095, 21.071466095827134], [79.05812145798821, 21.069208506239164], [79.05523520318569, 21.069175460907285], [79.05234895398338, 21.06914236656398], [79.0494627103896, 21.06910922320965], [79.04945682047139, 21.06956073884948], [79.04657057418395, 21.069527545711633], [79.04368433313084, 21.069494303557917], [79.04079809771123, 21.069461012393226], [79.03791186793337, 21.069427672217955], [79.0350256438056, 21.069394283032516], [79.03213942533618, 21.069360844837302], [79.0292532125334, 21.069327357632716], [79.02636700540558, 21.069293821419162], [79.023480803961, 21.069260236197042], [79.02059460820794, 21.069226601966765]], [[79.01165976192105, 21.089894624757488], [79.01165976192105, 21.08989462475749], [79.00925428367141, 21.089866409317267], [79.01165976192105, 21.089894624757488]], [[79.01175604049898, 21.10073354265974], [79.01175604058483, 21.100733542660745], [79.01199660617343, 21.100736365793473], [79.01175604049898, 21.10073354265974]], [[79.04943326056711, 21.071366801168402], [79.04944209603688, 21.07068950027277], [79.04943326080164, 21.071366801171102], [79.04943326056711, 21.071366801168402]], [[79.01186425141692, 21.092606471780762], [79.0118642515294, 21.09260647178208], [79.01186425142761, 21.09260647178089], [79.01186425130444, 21.092606471779444], [79.01186425141692, 21.092606471780762]]], [[[79.07651339655125, 21.209860982142036], [79.07647829172346, 21.212570074133495], [79.0735892278351, 21.21253712887476], [79.07355406479421, 21.215246215338187], [79.07351889618658, 21.217955300877385], [79.07348372201174, 21.220664385492263], [79.07059450570058, 21.220631377021807], [79.0705592732784, 21.2233404561008], [79.07052403527976, 21.226049534255118], [79.07049466583602, 21.228307083042647], [79.07046529288863, 21.230564662457166], [79.07335470239939, 21.230597687837093], [79.07624411747948, 21.23063066379269], [79.07913353812059, 21.230663590323577], [79.08202296431438, 21.230696467429347], [79.0849123960525, 21.23072929510962], [79.08780183332664, 21.23076207336398], [79.09069127612844, 21.230794802192044], [79.09358072444958, 21.230827481593412], [79.09647017828172, 21.2308601115677], [79.09935963761652, 21.23089269211451], [79.10224910244564, 21.230925223233445], [79.10513857276075, 21.230957704924112], [79.10802804855352, 21.230990137186126], [79.11091752981561, 21.231022520019103], [79.11380701653866, 21.23105485342264], [79.11669650871437, 21.231087137396354], [79.11958600633439, 21.231119371939855], [79.12247550939037, 21.23115155705275], [79.12536501787397, 21.231183692734668], [79.12825453177689, 21.2312157789852], [79.13114405109074, 21.23124781580397], [79.13403357580725, 21.231279803190596], [79.13692310591802, 21.23131174114469], [79.13933105183472, 21.231338314908683], [79.1393310517916, 21.231338318345188], [79.13957184640678, 21.231340972284865], [79.13981264141472, 21.231343629665858], [79.13981264145782, 21.231343626229346], [79.14222059177024, 21.231370165671976], [79.14224321740885, 21.22956403626516], [79.14272480262538, 21.229569342295996], [79.14561431372591, 21.229601128990584], [79.14850383018711, 21.229632866255706], [79.15139335200058, 21.229664554090977], [79.15428287915802, 21.229696192496018], [79.15717241165109, 21.229727781470444], [79.16006194947144, 21.229759321013873], [79.16295149261076, 21.229790811125937], [79.16584104106069, 21.22982225180625], [79.16776740970812, 21.229843179299376], [79.16776740964019, 21.22984318479752], [79.16824900209207, 21.229848411175073], [79.16873059481289, 21.229853643054426], [79.16873059488077, 21.22985363755628], [79.1706569669226, 21.229874543090734], [79.17069038342737, 21.227165310012904], [79.17072379464418, 21.22445607601579], [79.17075720057349, 21.221746841099513], [79.17079060121574, 21.219037605264134], [79.17082399657134, 21.216328368509778], [79.17085738664076, 21.21361913083654], [79.17089077142441, 21.21090989224451], [79.17092415092273, 21.20820065273379], [79.17095752513616, 21.20549141230448], [79.17099089406516, 21.202782170956677], [79.1710242577101, 21.200072928690478], [79.1710576160715, 21.197363685505987], [79.17109096914972, 21.194654441403294], [79.17112431694522, 21.19194519638251], [79.17115765945847, 21.18923595044371], [79.17119099668987, 21.186526703587013], [79.17122432863987, 21.18381745581252], [79.17125765530889, 21.181108207120317], [79.17129097669736, 21.1783989575105], [79.17132429280575, 21.175689706983185], [79.17135760363446, 21.17298045553845], [79.17139090918394, 21.170271203176405], [79.17141865940879, 21.16801349217008], [79.17141865977608, 21.168013492174055], [79.17142143451325, 21.167787714399452], [79.17142420945463, 21.16756194989715], [79.17142420908735, 21.167561949893173], [79.1714519556481, 21.165304238130524], [79.16952641925418, 21.165283402148745], [79.16953197418844, 21.164831865688914], [79.16956529891057, 21.162122613491928], [79.16959861834968, 21.15941336037792], [79.16963193250615, 21.156704106346986], [79.16966524138047, 21.153994851399226], [79.16969854497306, 21.151285595534745], [79.16973184328432, 21.148576338753635], [79.16976513631472, 21.145867081055993], [79.1697984240647, 21.14315782244193], [79.16983170653467, 21.140448562911526], [79.16986498372506, 21.137739302464897], [79.16989825563634, 21.13503004110213], [79.1699315222689, 21.132320778823328], [79.1699647836232, 21.129611515628586], [79.16999803969968, 21.12690225151801], [79.17003129049876, 21.124192986491686], [79.17006453602086, 21.121483720549726], [79.17009777626645, 21.118774453692225], [79.17013101123592, 21.116065185919275], [79.17016424092975, 21.113355917230987], [79.17019746534834, 21.110646647627444], [79.17023068449213, 21.10793737710875], [79.17026389836154, 21.105228105675018], [79.17029710695705, 21.102518833326325], [79.17033031027904, 21.099809560062777], [79.17036350832798, 21.097100285884483], [79.17039670110427, 21.094391010791526], [79.17042988860835, 21.091681734784014], [79.17046307084068, 21.08897245786205], [79.17034278631644, 21.088971159381483], [79.17037458319027, 21.086374769296448], [79.16760809172834, 21.086344906350348], [79.16760947626817, 21.0862320209197], [79.16760947630999, 21.086232017508777], [79.1700151188465, 21.08625799024881], [79.17004829924832, 21.08354871222705], [79.17008147437828, 21.08083943329111], [79.17011464423682, 21.07813015344108], [79.17014780882438, 21.075420872677064], [79.17018096814138, 21.072711590999152], [79.17021412218826, 21.070002308407446], [79.16756820255561, 21.069973762462674], [79.16492228809707, 21.069945179080346], [79.16203584062193, 21.069913948177028], [79.15914939844, 21.069882668249114], [79.15626296155956, 21.069851339297], [79.1562295550782, 21.072560600672944], [79.1561961432866, 21.075269861134355], [79.15616272618435, 21.07797912068113], [79.15612930377098, 21.08068837931318], [79.15609587604607, 21.08339763703039], [79.15898257414446, 21.083428987997394], [79.15894919337606, 21.086138249203113], [79.15891580730356, 21.088847509493956], [79.15602900465989, 21.088816149719914], [79.15599556099775, 21.09152540469203], [79.15596211202232, 21.094234658748928], [79.15592865773318, 21.09694391189049], [79.15589519812988, 21.099653164116624], [79.15586173321199, 21.102362415427237], [79.15297467437485, 21.102330984526407], [79.15294115181575, 21.10504023050998], [79.15290762393288, 21.107749475577688], [79.1528740907258, 21.11045871972941], [79.15284055219409, 21.11316796296506], [79.15280700833729, 21.11587720528454], [79.15277345915499, 21.118586446687747], [79.15273990464672, 21.12129568717458], [79.15270634481205, 21.124004926744945], [79.1498188724597, 21.12397341138723], [79.149785254906, 21.126682645621486], [79.14975163201672, 21.12939187893891], [79.14971800379142, 21.13210111133942], [79.14968437022966, 21.13481034282291], [79.14965073133102, 21.137519573389284], [79.14676300227183, 21.137487986736964], [79.14672930560252, 21.1401972119589], [79.14669560358712, 21.142906436263363], [79.14666189622518, 21.145615659650264], [79.14377401518801, 21.145584010500194], [79.14374025002128, 21.148293228534843], [79.14370647949882, 21.15100244565157], [79.1436727036202, 21.153711661850277], [79.14078467054117, 21.153679950160075], [79.14075083682359, 21.156389160998717], [79.14071699774065, 21.159098370918986], [79.1378288650544, 21.159066601095404], [79.1377949681071, 21.16177580564805], [79.13776106578524, 21.16448500928196], [79.13772715808838, 21.167194211997053], [79.13769324501607, 21.169903413793207], [79.14058158774642, 21.16993520141432], [79.14054772183005, 21.17264440674122], [79.14051385054566, 21.17535361114916], [79.14340230371647, 21.175385358379245], [79.14336847961253, 21.1780945663113], [79.14333465014803, 21.180803773324346], [79.14622321378602, 21.18083548013608], [79.14618943152651, 21.183544690666622], [79.14615564391389, 21.18625390027811], [79.14612185094767, 21.18896310897046], [79.14608805262746, 21.191672316743553], [79.14605424895278, 21.194381523597297], [79.14602043992322, 21.197090729531595], [79.14598662553833, 21.199799934546363], [79.14595280579763, 21.202509138641474], [79.14306382139841, 21.202477396332515], [79.14302994366889, 21.205186595070035], [79.14299606057436, 21.20789579288756], [79.14010697626698, 21.207863992328846], [79.14007303515817, 21.210573184781197], [79.13718390357613, 21.210541330397017], [79.13714990443637, 21.213250517476894], [79.13426072558057, 21.213218609253676], [79.1342266683932, 21.21592779095376], [79.13133744226454, 21.215895828877922], [79.12844822153598, 21.215863817409048], [79.12555900621584, 21.215831756547516], [79.12266979631245, 21.215799646293707], [79.11978059183417, 21.215767486648005], [79.11689139278933, 21.215735277610815], [79.11400219918625, 21.215703019182513], [79.11111301103325, 21.215670711363483], [79.10822382833868, 21.215638354154123], [79.10825835948766, 21.21292921289719], [79.10536923492002, 21.21289681082607], [79.10248011582699, 21.21286435937229], [79.10251474681287, 21.210155226256106], [79.09962568585375, 21.210122729961878], [79.09966036399969, 21.207413600464946], [79.09677136117354, 21.207381059344304], [79.09388236384613, 21.207348468855983], [79.09391714176883, 21.204639347540258], [79.0910282025814, 21.20460671224684], [79.08813926890889, 21.20457402759342], [79.08525034075964, 21.204541293580395], [79.08236141814199, 21.20450851020816], [79.07947250106426, 21.2044756774771], [79.07943745998163, 21.20718477591288], [79.07654849582154, 21.20715188922672], [79.07651339655125, 21.209860982142036]], [[79.1677423404803, 21.075394914526377], [79.1677423404803, 21.075394914526374], [79.17014780882438, 21.075420872677064], [79.1677423404803, 21.075394914526377]], [[79.16820209653368, 21.19462313454277], [79.16627618428251, 21.194602245036723], [79.16820209653368, 21.194623134542766], [79.16820209653368, 21.19462313454277]], [[79.16726124724276, 21.075389719491444], [79.16726124724276, 21.075389719491447], [79.16485578321358, 21.075363727292853], [79.16726124724276, 21.075389719491444]]]]}, "properties": {"confidence_band": "Very Low", "site_id": "nagpur", "cell_count": 807}}, {"type": "Feature", "geometry": {"type": "Polygon", "coordinates": [[[79.009482573101, 21.10883518978399], [79.00944643502868, 21.11154420522721], [79.00941029121879, 21.11425321974626], [79.0093741416708, 21.116962233341038], [79.00933798638427, 21.119671246011443], [79.00930182535873, 21.122380257757374], [79.0092656585937, 21.125089268578737], [79.00922948608871, 21.127798278475417], [79.00919330784329, 21.130507287447326], [79.00915712385698, 21.13321629549436], [79.00912093412929, 21.135925302616428], [79.00908473865974, 21.13863430881342], [79.00904853744788, 21.141343314085237], [79.00901233049323, 21.144052318431775], [79.00897611779533, 21.14676132185295], [79.00893989935368, 21.149470324348638], [79.00890367516783, 21.15217932591876], [79.0088674452373, 21.154888326563203], [79.0088312095616, 21.157597326281877], [79.00879496814031, 21.160306325074668], [79.00875872097292, 21.163015322941487], [79.00872246805895, 21.16572431988224], [79.00868620939792, 21.168433315896806], [79.0086499449894, 21.171142310985108], [79.00861367483289, 21.173851305147025], [79.00858042203689, 21.176334540217063], [79.00854716461556, 21.17881779203755], [79.01047269420535, 21.17884046302431], [79.01046665302783, 21.179291967694457], [79.01043040065423, 21.182000962249692], [79.0103941425363, 21.184709955878258], [79.01035787867359, 21.187418948580067], [79.01032160906557, 21.19012794035501], [79.0102853337118, 21.192836931202987], [79.01024905261181, 21.19554592112391], [79.01021276576512, 21.198254910117658], [79.01017647317126, 21.200963898184146], [79.01014017482974, 21.20367288532328], [79.01010387074011, 21.20638187153494], [79.01006756090187, 21.209090856819035], [79.01003124531458, 21.211799841175473], [79.00999492397773, 21.214508824604145], [79.00995859689088, 21.21721780710496], [79.00992226405353, 21.219926788677807], [79.00988592546521, 21.22263576932259], [79.00984958112545, 21.225344749039216], [79.00981626028927, 21.227827973544752], [79.00978293489655, 21.230311209442046], [79.01267223430848, 21.230345273432697], [79.01556153946484, 21.230379288006343], [79.01845085035734, 21.230413253162602], [79.02134016697761, 21.230447168901044], [79.02422948931734, 21.23048103522127], [79.02711881736818, 21.230514852122866], [79.0300081511218, 21.230548619605425], [79.03289749056988, 21.23058233766855], [79.03578683570406, 21.23061600631182], [79.03867618651603, 21.23064962553484], [79.04156554299745, 21.23068319533721], [79.04445490513997, 21.23071671571851], [79.04734427293526, 21.23075018667835], [79.050233646375, 21.230783608216313], [79.05312302545084, 21.23081698033202], [79.05601241015447, 21.23085030302504], [79.05890180047753, 21.230883576294993], [79.06179119641168, 21.230916800141475], [79.06181185013999, 21.22933651091733], [79.06179709785583, 21.23046528977547], [79.06468649060852, 21.230498463425956], [79.06757588895556, 21.23053158765332], [79.07046529288863, 21.230564662457166], [79.07048879108322, 21.22875861147753], [79.0704887917042, 21.22875861148464], [79.07049466583602, 21.228307083042647], [79.0705005401824, 21.22785558584422], [79.07050053956146, 21.227855585837116], [79.07052403527976, 21.226049534255118], [79.0705592732784, 21.2233404561008], [79.07059450570058, 21.220631377021807], [79.07348372201174, 21.220664385492263], [79.07351889618658, 21.217955300877385], [79.07355406479421, 21.215246215338187], [79.0735892278351, 21.21253712887476], [79.07647829172346, 21.212570074133495], [79.07651339655125, 21.209860982142036], [79.07654849582154, 21.20715188922672], [79.07943745998163, 21.20718477591288], [79.07947250106426, 21.2044756774771], [79.08236141814199, 21.20450851020816], [79.08525034075964, 21.204541293580395], [79.08813926890889, 21.20457402759342], [79.0910282025814, 21.20460671224684], [79.09391714176883, 21.204639347540258], [79.09388236384613, 21.207348468855983], [79.09677136117354, 21.207381059344304], [79.09966036399969, 21.207413600464946], [79.09962568585375, 21.210122729961878], [79.10251474681287, 21.210155226256106], [79.10248011582699, 21.21286435937229], [79.10536923492002, 21.21289681082607], [79.10825835948766, 21.21292921289719], [79.10822382833868, 21.215638354154123], [79.11111301103325, 21.215670711363483], [79.11400219918625, 21.215703019182513], [79.11689139278933, 21.215735277610815], [79.11978059183417, 21.215767486648005], [79.12266979631245, 21.215799646293707], [79.12555900621584, 21.215831756547516], [79.12844822153598, 21.215863817409048], [79.13133744226454, 21.215895828877922], [79.1342266683932, 21.21592779095376], [79.13426072558057, 21.213218609253676], [79.13714990443637, 21.213250517476894], [79.13718390357613, 21.210541330397017], [79.14007303515817, 21.210573184781197], [79.14010697626698, 21.207863992328846], [79.14299606057436, 21.20789579288756], [79.14302994366889, 21.205186595070035], [79.14306382139841, 21.202477396332515], [79.14595280579763, 21.202509138641474], [79.14598662553833, 21.199799934546363], [79.14602043992322, 21.197090729531595], [79.14605424895278, 21.194381523597297], [79.14608805262746, 21.191672316743553], [79.14612185094767, 21.18896310897046], [79.14615564391389, 21.18625390027811], [79.14618943152651, 21.183544690666622], [79.14622321378602, 21.18083548013608], [79.14333465014803, 21.180803773324346], [79.14336847961253, 21.1780945663113], [79.14340230371647, 21.175385358379245], [79.14051385054566, 21.17535361114916], [79.14054772183005, 21.17264440674122], [79.14058158774642, 21.16993520141432], [79.13769324501607, 21.169903413793207], [79.13772715808838, 21.167194211997053], [79.13776106578524, 21.16448500928196], [79.1377949681071, 21.16177580564805], [79.1378288650544, 21.159066601095404], [79.14071699774065, 21.159098370918986], [79.14075083682359, 21.156389160998717], [79.14078467054117, 21.153679950160075], [79.1436727036202, 21.153711661850277], [79.14370647949882, 21.15100244565157], [79.14374025002128, 21.148293228534843], [79.14377401518801, 21.145584010500194], [79.14666189622518, 21.145615659650264], [79.14669560358712, 21.142906436263363], [79.14672930560252, 21.1401972119589], [79.14676300227183, 21.137487986736964], [79.14965073133102, 21.137519573389284], [79.14968437022966, 21.13481034282291], [79.14971800379142, 21.13210111133942], [79.14975163201672, 21.12939187893891], [79.149785254906, 21.126682645621486], [79.1498188724597, 21.12397341138723], [79.15270634481205, 21.124004926744945], [79.15273990464672, 21.12129568717458], [79.15277345915499, 21.118586446687747], [79.15280700833729, 21.11587720528454], [79.15284055219409, 21.11316796296506], [79.1528740907258, 21.11045871972941], [79.15290762393288, 21.107749475577688], [79.15294115181575, 21.10504023050998], [79.15297467437485, 21.102330984526407], [79.15586173321199, 21.102362415427237], [79.15589519812988, 21.099653164116624], [79.15592865773318, 21.09694391189049], [79.15596211202232, 21.094234658748928], [79.15599556099775, 21.09152540469203], [79.15602900465989, 21.088816149719914], [79.15891580730356, 21.088847509493956], [79.15894919337606, 21.086138249203113], [79.15898257414446, 21.083428987997394], [79.15609587604607, 21.08339763703039], [79.15612930377098, 21.08068837931318], [79.15616272618435, 21.07797912068113], [79.1561961432866, 21.075269861134355], [79.1562295550782, 21.072560600672944], [79.15626296155956, 21.069851339297], [79.15337652998893, 21.06981996132104], [79.15049010373639, 21.069788534321628], [79.14760368281024, 21.069757058299132], [79.1447172672188, 21.069725533253937], [79.14183085697032, 21.06969395918643], [79.13894445207313, 21.069662336096968], [79.13605805253553, 21.069630663985947], [79.13317165836581, 21.069598942853748], [79.13028526957225, 21.069567172700754], [79.13027962348741, 21.070018709667224], [79.12739323174982, 21.069986889752695], [79.12450684503038, 21.069955020812852], [79.12162046371208, 21.069923102852208], [79.11873408780323, 21.06989113587115], [79.11584771731209, 21.06985911987006], [79.11296135224698, 21.06982705484933], [79.1100749926162, 21.069794940809338], [79.10718863842804, 21.06976277775047], [79.10430228969079, 21.069730565673115], [79.10141594641274, 21.069698304577663], [79.09852960860222, 21.069665994464497], [79.09564327626748, 21.069633635334007], [79.09275694941684, 21.069601227186592], [79.08987062805859, 21.069568770022627], [79.08698431220104, 21.069536263842505], [79.08409800185247, 21.069503708646625], [79.08121169702117, 21.069471104435372], [79.07832539771545, 21.06943845120914], [79.0754391039436, 21.069405748968325], [79.0725528157139, 21.069372997713305], [79.06966653303466, 21.0693401974445], [79.06678025591418, 21.069307348162287], [79.06389398436075, 21.06927444986706], [79.06100771838267, 21.069241502559223], [79.05812145798821, 21.069208506239164], [79.05808920716858, 21.07169184374717], [79.05805695179198, 21.074175202499223], [79.05802175867112, 21.076884308246832], [79.05798655995704, 21.079593413074317], [79.05510010496063, 21.079560349940625], [79.0550648484083, 21.082269449203533], [79.05217834676981, 21.08223633238079], [79.04929185074204, 21.082203166513736], [79.04925648408299, 21.08491225554649], [79.04636994142278, 21.084879035970364], [79.04633451688447, 21.08758811941687], [79.0434479275928, 21.087554846118135], [79.04056134393767, 21.087521523762515], [79.04052580923636, 21.090230596936188], [79.03763917895942, 21.090197220837933], [79.0347525543361, 21.090163795676705], [79.03471690944001, 21.09287285854926], [79.03183023820456, 21.092839379625378], [79.0289435726398, 21.09280585163245], [79.02890781751711, 21.09551490417556], [79.02602110534993, 21.095481322399962], [79.02313439887048, 21.095447691549225], [79.0230985334894, 21.09815673373459], [79.02021178041723, 21.098123049081163], [79.01732503304987, 21.098089315346535], [79.01728905737859, 21.100798347145844], [79.01440226342822, 21.1007645595885], [79.01151547519973, 21.100730722943883], [79.01147938925193, 21.103439740915405], [79.00907369313997, 21.103411505665303], [79.00903755782285, 21.106120522163614], [79.0107215742156, 21.10614028959591], [79.00951870543616, 21.106126173416694], [79.009482573101, 21.10883518978399]], [[79.04448467391607, 21.22845918691075], [79.04448467430939, 21.228459186915313], [79.04445490513997, 21.23071671571851], [79.04448467391607, 21.22845918691075]], [[79.09850089873346, 21.071923637626742], [79.09850089873345, 21.071923637626742], [79.09852960860222, 21.069665994464497], [79.09850089873346, 21.071923637626742]], [[79.07766874084979, 21.120460428730368], [79.07763381917799, 21.1231695511569], [79.0775988919633, 21.125878672662747], [79.07471150864474, 21.125845874648576], [79.07467652349783, 21.128554990634758], [79.07178909334247, 21.128522138857114], [79.0717540502467, 21.131231249316308], [79.06886657325546, 21.131198343761657], [79.06883147219422, 21.13390744868656], [79.06594394836802, 21.133874489341334], [79.06590878932468, 21.136583588724623], [79.06302121866442, 21.13655057557528], [79.06305643011976, 21.13384148081892], [79.06016891745774, 21.133808423119724], [79.0572814103903, 21.133775316244137], [79.05731672106542, 21.1310662298401], [79.05735202613809, 21.12835714251395], [79.05446462946983, 21.1283239957571], [79.05449998132625, 21.12561491215604], [79.05453532757285, 21.12290582763289], [79.0545706682101, 21.12019674218777], [79.05460600323848, 21.117487655820756], [79.05464133265843, 21.11477856853196], [79.05752846748129, 21.114811692054854], [79.06041560790379, 21.114844766449988], [79.06330275391767, 21.114877791716975], [79.0633379206958, 21.112168689588252], [79.06622501994718, 21.11220166110105], [79.06911212477284, 21.112234583491784], [79.06914718129347, 21.10952547119792], [79.07203423934698, 21.109558339854498], [79.07492130295768, 21.109591159395123], [79.0778083721173, 21.10962392981939], [79.07784326608153, 21.106914802790925], [79.08073028845055, 21.106947519507578], [79.08361731635141, 21.106980187113976], [79.08650434977582, 21.107012805609717], [79.08939138871546, 21.10704537499442], [79.08942606784521, 21.1043362287244], [79.09231305996708, 21.104368744434524], [79.09520005758712, 21.104401211039715], [79.09808706069703, 21.104433628539578], [79.10097406928851, 21.104465996933726], [79.10386108335325, 21.104498316221772], [79.10674810288295, 21.10453058640332], [79.1096351278693, 21.104562807477986], [79.112522158304, 21.104594979445384], [79.11248789778455, 21.107304162027667], [79.10960081502198, 21.107271985545353], [79.10671373770823, 21.10723975994887], [79.10382666585156, 21.107207485238625], [79.10379224288447, 21.109916653336835], [79.1009051241584, 21.109884324977457], [79.09801801090649, 21.109851947498193], [79.09513090313705, 21.109819520899435], [79.09509631767607, 21.112528674450513], [79.09220916305563, 21.112496194176074], [79.0893220139347, 21.112463664776033], [79.0892873182828, 21.11517280828742], [79.08640012232055, 21.115140225191652], [79.08351293187489, 21.11510759296417], [79.08347812600017, 21.117816726407575], [79.08059088872284, 21.117784040464322], [79.08055602495789, 21.120493168402945], [79.07766874084979, 21.120460428730368]], [[79.04449062767223, 21.228007681077468], [79.04449062727893, 21.228007681072906], [79.04452039213136, 21.225750151502307], [79.04449062767223, 21.228007681077468]], [[79.03881349612689, 21.220265023625608], [79.03877768425865, 21.222974051523245], [79.03588848273529, 21.222940445601477], [79.03299928688837, 21.22290679027901], [79.03011009672623, 21.222873085556238], [79.02722091225723, 21.22283933143357], [79.02433173348967, 21.222805527911415], [79.02436780872384, 21.220096523553977], [79.02725693481915, 21.220130322354294], [79.0272929516801, 21.21742131234796], [79.02732896284053, 21.214712301414664], [79.0302179893164, 21.214746041393017], [79.03025394212906, 21.212037024818425], [79.03314292164843, 21.212070710710034], [79.03317881613002, 21.20936168850147], [79.03606774869198, 21.209395320319896], [79.03895668692803, 21.209428902772107], [79.04184563082988, 21.20946243585769], [79.04473458038917, 21.209495919576263], [79.04762353559762, 21.209529353927397], [79.04758790432237, 21.212238399569372], [79.05047691781427, 21.21227178921867], [79.05336593693907, 21.212305129492837], [79.05333040532503, 21.21501418353462], [79.05044133354875, 21.214980838601193], [79.05040574364985, 21.217689887058185], [79.04751662484765, 21.21765648807642], [79.04462751168764, 21.217623039706123], [79.04459181082002, 21.220332077897613], [79.0417026506438, 21.220298575458916], [79.03881349612689, 21.220265023625608]], [[79.13025139306762, 21.072276394142758], [79.13025139269293, 21.072276394138626], [79.13026550872534, 21.071147516090228], [79.13025139306762, 21.072276394142758]]]}, "properties": {"confidence_band": "Low", "site_id": "nagpur", "cell_count": 2430}}, {"type": "Feature", "geometry": {"type": "MultiPolygon", "coordinates": [[[[79.08646961280657, 21.109721946390096], [79.08643487032163, 21.112431086250776], [79.0893220139347, 21.112463664776033], [79.09220916305563, 21.112496194176074], [79.09509631767607, 21.112528674450513], [79.09513090313705, 21.109819520899435], [79.09801801090649, 21.109851947498193], [79.1009051241584, 21.109884324977457], [79.10379224288447, 21.109916653336835], [79.10382666585156, 21.107207485238625], [79.10671373770823, 21.10723975994887], [79.10960081502198, 21.107271985545353], [79.11248789778455, 21.107304162027667], [79.112522158304, 21.104594979445384], [79.1096351278693, 21.104562807477986], [79.10674810288295, 21.10453058640332], [79.10386108335325, 21.104498316221772], [79.10097406928851, 21.104465996933726], [79.09808706069703, 21.104433628539578], [79.09520005758712, 21.104401211039715], [79.09231305996708, 21.104368744434524], [79.08942606784521, 21.1043362287244], [79.08939138871546, 21.10704537499442], [79.08650434977582, 21.107012805609717], [79.08361731635141, 21.106980187113976], [79.08073028845055, 21.106947519507578], [79.07784326608153, 21.106914802790925], [79.0778083721173, 21.10962392981939], [79.08069544681753, 21.1096566511269], [79.08358252705005, 21.10968932331727], [79.08646961280657, 21.109721946390096]]], [[[79.04473458038917, 21.209495919576263], [79.04469889647174, 21.212204960545346], [79.04466320690472, 21.214914000588664], [79.04462751168764, 21.217623039706123], [79.04751662484765, 21.21765648807642], [79.05040574364985, 21.217689887058185], [79.05044133354875, 21.214980838601193], [79.05333040532503, 21.21501418353462], [79.05336593693907, 21.212305129492837], [79.05047691781427, 21.21227178921867], [79.04758790432237, 21.212238399569372], [79.04762353559762, 21.209529353927397], [79.04473458038917, 21.209495919576263]]], [[[79.02436780872384, 21.220096523553977], [79.02433173348967, 21.222805527911415], [79.02722091225723, 21.22283933143357], [79.03011009672623, 21.222873085556238], [79.03299928688837, 21.22290679027901], [79.0330352041044, 21.220197771776753], [79.03014606661544, 21.220164071762024], [79.03018203081201, 21.21745505704091], [79.0272929516801, 21.21742131234796], [79.02725693481915, 21.220130322354294], [79.02436780872384, 21.220096523553977]]]]}, "properties": {"confidence_band": "High", "site_id": "nagpur", "cell_count": 30}}, {"type": "Feature", "geometry": {"type": "MultiPolygon", "coordinates": [[[[79.05735202613809, 21.12835714251395], [79.05731672106542, 21.1310662298401], [79.0572814103903, 21.133775316244137], [79.06016891745774, 21.133808423119724], [79.06305643011976, 21.13384148081892], [79.06302121866442, 21.13655057557528], [79.06590878932468, 21.136583588724623], [79.06594394836802, 21.133874489341334], [79.06883147219422, 21.13390744868656], [79.06886657325546, 21.131198343761657], [79.0717540502467, 21.131231249316308], [79.07178909334247, 21.128522138857114], [79.07467652349783, 21.128554990634758], [79.07471150864474, 21.125845874648576], [79.0775988919633, 21.125878672662747], [79.07763381917799, 21.1231695511569], [79.07766874084979, 21.120460428730368], [79.08055602495789, 21.120493168402945], [79.08059088872284, 21.117784040464322], [79.08347812600017, 21.117816726407575], [79.08351293187489, 21.11510759296417], [79.08640012232055, 21.115140225191652], [79.0892873182828, 21.11517280828742], [79.0893220139347, 21.112463664776033], [79.08643487032163, 21.112431086250776], [79.08646961280657, 21.109721946390096], [79.08358252705005, 21.10968932331727], [79.08069544681753, 21.1096566511269], [79.0778083721173, 21.10962392981939], [79.07492130295768, 21.109591159395123], [79.07203423934698, 21.109558339854498], [79.06914718129347, 21.10952547119792], [79.06911212477284, 21.112234583491784], [79.06622501994718, 21.11220166110105], [79.0633379206958, 21.112168689588252], [79.06330275391767, 21.114877791716975], [79.06041560790379, 21.114844766449988], [79.05752846748129, 21.114811692054854], [79.05464133265843, 21.11477856853196], [79.05460600323848, 21.117487655820756], [79.0545706682101, 21.12019674218777], [79.05453532757285, 21.12290582763289], [79.05449998132625, 21.12561491215604], [79.05446462946983, 21.1283239957571], [79.05735202613809, 21.12835714251395]]], [[[79.03317881613002, 21.20936168850147], [79.03314292164843, 21.212070710710034], [79.03025394212906, 21.212037024818425], [79.0302179893164, 21.214746041393017], [79.02732896284053, 21.214712301414664], [79.0272929516801, 21.21742131234796], [79.03018203081201, 21.21745505704091], [79.03014606661544, 21.220164071762024], [79.0330352041044, 21.220197771776753], [79.03299928688837, 21.22290679027901], [79.03588848273529, 21.222940445601477], [79.03877768425865, 21.222974051523245], [79.03881349612689, 21.220265023625608], [79.0417026506438, 21.220298575458916], [79.04459181082002, 21.220332077897613], [79.04462751168764, 21.217623039706123], [79.04466320690472, 21.214914000588664], [79.04469889647174, 21.212204960545346], [79.04473458038917, 21.209495919576263], [79.04184563082988, 21.20946243585769], [79.03895668692803, 21.209428902772107], [79.03606774869198, 21.209395320319896], [79.03317881613002, 21.20936168850147]]]]}, "properties": {"confidence_band": "Very High", "site_id": "nagpur", "cell_count": 89}}]}